{"type":"FeatureCollection","license":"Boundary data © Kartverket, CC BY 4.0, via ws.geonorge.no/kommuneinfo (2024 boundaries)","features":[{"type":"Feature","properties":{"nr":"39","name":"Vestfold"},"geometry":{"type":"MultiPolygon","coordinates":[[[[10.59079,59.29722],[10.57824,59.34094],[10.59443,59.35619],[10.59527,59.37414],[10.58416,59.39306],[10.54403,59.4123],[10.53668,59.43278],[10.54306,59.45733],[10.45581,59.47988],[10.39369,59.51469],[10.39802,59.53043],[10.37826,59.53632],[10.3796,59.53806],[10.37343,59.53982],[10.37506,59.54183],[10.37316,59.54269],[10.36685,59.54198],[10.36353,59.54518],[10.36536,59.54801],[10.35997,59.54857],[10.35824,59.55188],[10.35472,59.55165],[10.35105,59.55618],[10.3543,59.55822],[10.34318,59.56515],[10.33091,59.6059],[10.3339,59.60898],[10.33244,59.6113],[10.33576,59.62049],[10.33661,59.63044],[10.32305,59.64929],[10.32552,59.64945],[10.32172,59.65301],[10.3208,59.65759],[10.31722,59.66066],[10.30203,59.66439],[10.30294,59.66824],[10.2996,59.66907],[10.28373,59.67166],[10.27196,59.67087],[10.26135,59.67388],[10.24402,59.6727],[10.23861,59.66641],[10.23055,59.67102],[10.2245,59.67129],[10.22259,59.66828],[10.22336,59.66548],[10.21896,59.66383],[10.21558,59.66402],[10.20979,59.66814],[10.19284,59.6719],[10.18621,59.66863],[10.17983,59.66801],[10.16021,59.66914],[10.1572,59.66799],[10.15723,59.66582],[10.13622,59.6717],[10.11551,59.67067],[10.11275,59.66782],[10.11151,59.66073],[10.09857,59.65607],[10.08891,59.64257],[10.05217,59.64386],[10.03746,59.64053],[10.03254,59.64703],[10.01912,59.65803],[10.00462,59.66448],[9.99817,59.66382],[9.99981,59.6565],[9.99541,59.65615],[9.9964,59.65465],[9.993,59.64975],[9.9829,59.64357],[9.98657,59.63897],[9.97464,59.63258],[9.97623,59.62433],[9.98107,59.61795],[9.94477,59.60945],[9.93293,59.60387],[9.94184,59.58692],[9.92976,59.58633],[9.92125,59.58254],[9.91533,59.58248],[9.94278,59.56783],[9.98885,59.53064],[10.02499,59.51235],[10.04343,59.49581],[10.04567,59.48979],[10.05309,59.48346],[10.05997,59.47303],[10.02286,59.46466],[10.02134,59.46242],[10.02243,59.46086],[10.01327,59.45852],[10.00228,59.45995],[9.99832,59.467],[9.98704,59.46766],[9.97874,59.46604],[9.94478,59.46829],[9.93704,59.46459],[9.93721,59.45951],[9.92056,59.45553],[9.8748,59.45996],[9.85295,59.45833],[9.84543,59.46355],[9.84144,59.463],[9.8321,59.46772],[9.81911,59.46918],[9.77513,59.45703],[9.7585,59.45828],[9.7714,59.43737],[9.77809,59.412],[9.77937,59.39036],[9.77667,59.38072],[9.77072,59.37863],[9.76942,59.37563],[9.77319,59.36301],[9.78281,59.35033],[9.7715,59.3427],[9.75534,59.3249],[9.77679,59.31611],[9.81063,59.28896],[9.81058,59.28225],[9.83623,59.27196],[9.84948,59.26234],[9.86949,59.25186],[9.87174,59.24634],[9.8714,59.23941],[9.87812,59.22073],[9.85715,59.21555],[9.88504,59.19313],[9.89642,59.177],[9.88548,59.16926],[9.85469,59.1643],[9.8313,59.16389],[9.82477,59.15761],[9.82736,59.15555],[9.82927,59.13964],[9.82058,59.12947],[9.84706,59.11329],[9.85615,59.09881],[9.84994,59.07389],[9.83832,59.07251],[9.84203,59.06279],[9.83887,59.05565],[9.83922,59.04425],[9.83472,59.03725],[9.82486,59.04249],[9.81753,59.0408],[9.81293,59.03601],[9.81283,59.03403],[9.82079,59.03314],[9.83619,59.02315],[9.83455,58.99781],[9.78254,59.02997],[9.78108,59.01183],[9.76485,59.01004],[9.76447,59.00107],[9.79518,58.89822],[9.96976,58.72045],[10.07383,58.74792],[10.27092,58.77503],[10.5931,58.76096],[10.62853,58.95459],[10.66044,59.02482],[10.67502,59.04529],[10.62272,59.1117],[10.65098,59.13282],[10.65505,59.19196],[10.64157,59.20291],[10.60501,59.25232],[10.59033,59.26848],[10.59079,59.29722]]]]}},{"type":"Feature","properties":{"nr":"40","name":"Telemark"},"geometry":{"type":"MultiPolygon","coordinates":[[[[9.77195,59.34301],[9.75534,59.3249],[9.77679,59.31611],[9.81063,59.28896],[9.81058,59.28225],[9.83623,59.27196],[9.84948,59.26234],[9.86949,59.25186],[9.87174,59.24634],[9.8714,59.23941],[9.87812,59.22073],[9.85715,59.21555],[9.88504,59.19313],[9.89642,59.177],[9.88548,59.16926],[9.85469,59.1643],[9.8313,59.16389],[9.82477,59.15761],[9.82736,59.15555],[9.82927,59.13964],[9.82058,59.12947],[9.84706,59.11329],[9.85612,59.09786],[9.84994,59.07389],[9.83832,59.07251],[9.84203,59.06279],[9.83887,59.05565],[9.83922,59.04425],[9.83472,59.03725],[9.82486,59.04249],[9.81753,59.0408],[9.81293,59.03601],[9.81283,59.03403],[9.82079,59.03314],[9.83619,59.02315],[9.83455,58.99781],[9.78254,59.02997],[9.78108,59.01183],[9.76485,59.01004],[9.76447,59.00107],[9.78313,58.93579],[9.79518,58.89822],[9.96976,58.72045],[9.78836,58.67228],[9.66888,58.6033],[9.35388,58.77682],[9.32883,58.78522],[9.32106,58.78248],[9.31772,58.77724],[9.31308,58.77436],[9.30498,58.77203],[9.27462,58.7957],[9.23093,58.79603],[9.19634,58.80345],[9.2079,58.81314],[9.19203,58.81448],[9.1902,58.84543],[9.18281,58.86245],[9.16668,58.8793],[9.16053,58.88496],[9.12458,58.89386],[9.07285,58.91132],[9.05099,58.92489],[9.03467,58.93261],[9.01318,58.96558],[9.00887,58.97717],[9.00096,58.98024],[9.00239,58.98325],[9.00097,58.98769],[8.99488,58.99323],[8.93968,58.9861],[8.83418,58.98809],[8.83223,58.97803],[8.82221,58.96986],[8.762,58.94849],[8.75447,58.94273],[8.76167,58.93737],[8.78768,58.92949],[8.81313,58.91784],[8.83074,58.91257],[8.81803,58.90592],[8.81477,58.9027],[8.81123,58.89302],[8.79798,58.88437],[8.78113,58.86758],[8.79248,58.86447],[8.78869,58.86225],[8.78992,58.85533],[8.78644,58.84356],[8.76276,58.83548],[8.74372,58.8314],[8.73117,58.83951],[8.72172,58.85069],[8.65342,58.86941],[8.65598,58.87304],[8.65118,58.87912],[8.63796,58.88595],[8.63701,58.88765],[8.63959,58.8891],[8.63824,58.89166],[8.63281,58.89302],[8.61044,58.91365],[8.58647,58.92219],[8.58007,58.9258],[8.57545,58.93144],[8.50305,58.908],[8.47643,58.8869],[8.4334,58.89908],[8.43103,58.90173],[8.42051,58.90335],[8.41945,58.90554],[8.39031,58.91231],[8.32647,58.91654],[8.30994,58.91946],[8.30754,58.92662],[8.29389,58.93668],[8.27924,58.94187],[8.26973,58.94775],[8.22588,58.96348],[8.22236,58.97035],[8.19412,58.97593],[8.17329,58.98234],[8.1555,58.98156],[8.12715,58.98502],[8.09763,58.9754],[8.07948,58.97216],[8.08916,58.96508],[8.10695,58.96421],[8.11303,58.96641],[8.135,58.96377],[8.13672,58.9611],[8.1219,58.95499],[8.0974,58.95184],[8.09168,58.94848],[8.05522,58.95017],[8.03641,58.95413],[8.00944,58.9647],[7.98533,58.96163],[7.96809,58.96741],[7.96385,58.97427],[7.94196,58.98694],[7.93715,58.99783],[7.9405,59.00544],[7.91121,59.00902],[7.90247,59.02567],[7.87689,59.03891],[7.87737,59.04684],[7.86751,59.05613],[7.86784,59.0601],[7.84742,59.07745],[7.82821,59.08907],[7.82872,59.09051],[7.81439,59.10475],[7.80532,59.11706],[7.78496,59.12403],[7.76922,59.13486],[7.74219,59.14389],[7.72924,59.16733],[7.73228,59.16702],[7.73614,59.17075],[7.73887,59.17909],[7.74352,59.18375],[7.74654,59.18909],[7.7457,59.19122],[7.74934,59.19474],[7.74367,59.19846],[7.74936,59.20771],[7.76282,59.21435],[7.77474,59.21389],[7.78049,59.22068],[7.75784,59.22845],[7.7513,59.23495],[7.74646,59.2507],[7.73769,59.25124],[7.72506,59.26085],[7.71594,59.29005],[7.69616,59.32675],[7.67334,59.33259],[7.64325,59.33374],[7.62533,59.33225],[7.61428,59.32841],[7.61548,59.33135],[7.60979,59.33622],[7.61208,59.33898],[7.61248,59.34847],[7.59669,59.36596],[7.59539,59.37673],[7.53996,59.39882],[7.54432,59.40462],[7.57438,59.42381],[7.58189,59.43312],[7.58218,59.43474],[7.56607,59.43835],[7.57933,59.44124],[7.58309,59.44445],[7.62563,59.46178],[7.59465,59.47881],[7.58462,59.50126],[7.53628,59.52403],[7.51455,59.56148],[7.55156,59.58662],[7.53357,59.59424],[7.53757,59.59705],[7.53789,59.60162],[7.50612,59.6078],[7.47467,59.63171],[7.48374,59.63669],[7.46972,59.64373],[7.45439,59.64728],[7.45016,59.64502],[7.45125,59.64152],[7.44763,59.64286],[7.4456,59.64736],[7.44988,59.64935],[7.43783,59.65531],[7.44232,59.6587],[7.41839,59.65597],[7.40158,59.65948],[7.40743,59.64989],[7.39641,59.64708],[7.39262,59.63286],[7.36877,59.6346],[7.36717,59.63502],[7.36925,59.637],[7.34015,59.64453],[7.33728,59.64787],[7.33208,59.64698],[7.32824,59.64339],[7.32,59.64589],[7.31691,59.64775],[7.31874,59.65079],[7.30073,59.65811],[7.29285,59.65848],[7.28565,59.65555],[7.24411,59.66688],[7.23595,59.66522],[7.17428,59.68606],[7.11008,59.7006],[7.11631,59.71399],[7.11045,59.76332],[7.09629,59.78278],[7.14547,59.81178],[7.14201,59.82247],[7.14976,59.82704],[7.15813,59.82847],[7.16096,59.83245],[7.16013,59.83628],[7.1532,59.84096],[7.156,59.84505],[7.14419,59.8472],[7.14583,59.85013],[7.14135,59.85363],[7.15811,59.86722],[7.15818,59.86947],[7.14919,59.87676],[7.1473,59.88183],[7.16814,59.90339],[7.23291,59.96271],[7.25908,59.97592],[7.26646,59.98374],[7.28796,59.98864],[7.29445,59.98722],[7.30729,59.98843],[7.32043,59.98596],[7.35242,59.99592],[7.37648,60.00001],[7.43643,60.01923],[7.44265,60.05732],[7.48826,60.09893],[7.646,60.12685],[7.76467,60.11593],[7.81284,60.10265],[7.92095,60.13714],[8.05767,60.16359],[8.07293,60.16825],[8.08596,60.17609],[8.09152,60.17707],[8.10413,60.18379],[8.12291,60.18284],[8.13235,60.18563],[8.15112,60.18507],[8.16166,60.18149],[8.17038,60.17375],[8.18675,60.17331],[8.1766,60.18175],[8.16689,60.18635],[8.20879,60.18827],[8.28427,60.1751],[8.30576,60.17461],[8.38428,60.18117],[8.45802,60.17012],[8.48611,60.16879],[8.56521,60.17724],[8.65987,60.17201],[8.72286,60.18311],[8.76904,60.17001],[8.80933,60.15275],[8.83277,60.14942],[8.94559,60.10019],[8.95787,60.09806],[8.95948,60.09382],[8.95708,60.09236],[8.97812,60.07011],[8.98304,60.05021],[8.98305,60.03699],[8.98732,60.02825],[8.98796,60.01745],[8.98986,60.01269],[8.99835,60.00408],[8.99998,59.99803],[9.00242,59.99682],[8.98749,59.99057],[8.99279,59.98077],[9.01921,59.98403],[9.03009,59.97938],[9.03581,59.97454],[9.05438,59.96942],[9.05858,59.96198],[9.10427,59.95893],[9.10973,59.95557],[9.11212,59.95046],[9.1393,59.93929],[9.17951,59.92906],[9.19259,59.91681],[9.17429,59.90002],[9.18857,59.89691],[9.18661,59.88123],[9.1788,59.86562],[9.1833,59.85702],[9.18457,59.84835],[9.18856,59.84188],[9.18772,59.83312],[9.18526,59.83079],[9.18609,59.82699],[9.20268,59.82054],[9.23571,59.81187],[9.24179,59.81133],[9.25341,59.81382],[9.2573,59.80874],[9.26379,59.80664],[9.2907,59.80338],[9.31296,59.79832],[9.32956,59.79402],[9.35144,59.78382],[9.36775,59.78134],[9.36261,59.77834],[9.34409,59.7573],[9.34322,59.75145],[9.34603,59.73508],[9.34538,59.73162],[9.33905,59.72895],[9.34356,59.72577],[9.33896,59.71951],[9.35479,59.71825],[9.34536,59.71069],[9.33329,59.69279],[9.4053,59.68454],[9.4054,59.659],[9.42301,59.641],[9.42801,59.62778],[9.43656,59.61326],[9.46113,59.57779],[9.46446,59.56676],[9.47198,59.55735],[9.51526,59.53811],[9.48402,59.50696],[9.46858,59.49431],[9.47174,59.48221],[9.52348,59.48573],[9.53574,59.48358],[9.55203,59.48725],[9.5846,59.46642],[9.57958,59.46433],[9.57889,59.4622],[9.58684,59.45063],[9.62138,59.43844],[9.62462,59.4249],[9.66012,59.40787],[9.70383,59.41173],[9.77809,59.412],[9.77937,59.39036],[9.77667,59.38072],[9.77072,59.37863],[9.76942,59.37563],[9.77319,59.36301],[9.78281,59.35033],[9.77312,59.3438],[9.77195,59.34301]]]]}},{"type":"Feature","properties":{"nr":"42","name":"Agder"},"geometry":{"type":"MultiPolygon","coordinates":[[[[9.31985,58.39967],[8.93095,58.16922],[8.73151,58.07033],[8.47998,57.94946],[8.42294,57.93033],[8.16305,57.86488],[7.78541,57.78148],[7.69307,57.76635],[7.57218,57.75901],[7.1806,57.76246],[7.13063,57.76583],[6.89499,57.793],[6.51748,57.87439],[6.46891,57.88738],[6.41992,57.90315],[6.38223,57.91823],[6.14971,58.02785],[6.37295,58.27651],[6.38648,58.27813],[6.4398,58.29074],[6.45322,58.29633],[6.4792,58.30131],[6.51615,58.31362],[6.54339,58.3195],[6.56033,58.3274],[6.57595,58.34455],[6.59127,58.35798],[6.6009,58.36295],[6.60852,58.37217],[6.59598,58.4091],[6.59532,58.41631],[6.60962,58.43096],[6.63015,58.44373],[6.63215,58.4514],[6.61994,58.45717],[6.61678,58.46584],[6.61324,58.46778],[6.61935,58.47052],[6.61143,58.47438],[6.61015,58.47975],[6.6116,58.4832],[6.60741,58.48943],[6.59612,58.49661],[6.5877,58.49277],[6.59284,58.50048],[6.59303,58.50974],[6.6111,58.53492],[6.60654,58.53656],[6.60534,58.53941],[6.61352,58.54171],[6.61205,58.54708],[6.61822,58.55529],[6.6083,58.56165],[6.60888,58.57011],[6.61112,58.57141],[6.60876,58.57415],[6.60977,58.57861],[6.5967,58.58575],[6.59143,58.5863],[6.58794,58.59017],[6.58922,58.59632],[6.5955,58.6037],[6.60513,58.60934],[6.61472,58.62509],[6.58272,58.61525],[6.53252,58.62788],[6.4975,58.60992],[6.48316,58.62325],[6.48791,58.627],[6.48047,58.63066],[6.47668,58.63539],[6.46973,58.63797],[6.46897,58.64015],[6.43607,58.64933],[6.45083,58.66361],[6.47713,58.67154],[6.51338,58.67011],[6.55551,58.67752],[6.57986,58.6843],[6.60125,58.68705],[6.62203,58.69605],[6.6228,58.70405],[6.61652,58.71528],[6.60613,58.72678],[6.57362,58.74145],[6.57638,58.76196],[6.57275,58.76528],[6.56752,58.76613],[6.55939,58.76361],[6.53274,58.76813],[6.52294,58.76582],[6.5181,58.76741],[6.5372,58.8008],[6.55212,58.81808],[6.55308,58.82583],[6.56591,58.8421],[6.57643,58.84916],[6.6039,58.87521],[6.60129,58.87742],[6.60855,58.88007],[6.60413,58.88405],[6.58077,58.88119],[6.5765,58.88467],[6.56754,58.88571],[6.56084,58.90995],[6.63312,58.93982],[6.66553,58.98537],[6.70259,58.99418],[6.70646,59.00168],[6.72547,59.01464],[6.75684,59.03176],[6.78123,59.04037],[6.78772,59.05269],[6.90369,59.1134],[6.89943,59.11582],[6.90239,59.12041],[6.89847,59.1226],[6.90046,59.12407],[6.89878,59.12717],[6.90251,59.13066],[6.8904,59.14044],[6.87971,59.14066],[6.88104,59.14459],[6.89842,59.15858],[6.90986,59.16043],[6.92491,59.16593],[6.92576,59.16773],[6.92166,59.16889],[6.92341,59.17211],[6.92232,59.17455],[6.93771,59.17969],[6.93917,59.18192],[6.9042,59.18552],[6.84758,59.18267],[6.8377,59.19259],[6.84076,59.25102],[6.82453,59.26988],[6.83158,59.31733],[6.84762,59.3351],[6.85461,59.34861],[6.85857,59.35227],[6.85943,59.3599],[6.86514,59.3684],[6.8909,59.39821],[6.90125,59.39233],[6.90695,59.39203],[6.90883,59.39488],[6.91803,59.39309],[6.92176,59.3948],[6.92414,59.39633],[6.92267,59.39766],[6.92538,59.39867],[6.92525,59.40137],[6.93217,59.40027],[6.9314,59.40266],[6.89344,59.42071],[6.88283,59.4293],[6.92628,59.43676],[6.94642,59.44315],[6.94959,59.44582],[6.95671,59.44471],[6.99775,59.46139],[7.00011,59.46694],[7.00876,59.47411],[7.02288,59.4812],[7.01638,59.48728],[7.0153,59.49134],[7.00111,59.49606],[7.00558,59.50056],[7.00488,59.50202],[6.99978,59.50474],[6.97681,59.50924],[6.96808,59.51227],[6.96296,59.51645],[6.98026,59.5234],[6.97846,59.54133],[6.99184,59.59703],[7.01273,59.59645],[7.04859,59.58683],[7.06181,59.60347],[7.07218,59.61115],[7.08896,59.61973],[7.09872,59.65129],[7.13839,59.66227],[7.19876,59.66693],[7.21112,59.66901],[7.21467,59.67269],[7.23595,59.66522],[7.24411,59.66688],[7.28565,59.65555],[7.29285,59.65848],[7.30073,59.65811],[7.31874,59.65079],[7.31731,59.64721],[7.32667,59.6437],[7.33728,59.64787],[7.34015,59.64453],[7.36925,59.637],[7.36784,59.63475],[7.39262,59.63286],[7.39641,59.64708],[7.40743,59.64989],[7.40158,59.65948],[7.41839,59.65597],[7.44232,59.6587],[7.43783,59.65531],[7.44988,59.64935],[7.4456,59.64736],[7.44763,59.64286],[7.45125,59.64152],[7.45016,59.64502],[7.45439,59.64728],[7.46972,59.64373],[7.48374,59.63669],[7.47467,59.63171],[7.50612,59.6078],[7.53789,59.60162],[7.53757,59.59705],[7.53357,59.59424],[7.55156,59.58662],[7.51455,59.56148],[7.53628,59.52403],[7.58462,59.50126],[7.59465,59.47881],[7.62563,59.46178],[7.58309,59.44445],[7.57933,59.44124],[7.56607,59.43835],[7.58218,59.43474],[7.58189,59.43312],[7.57438,59.42381],[7.54432,59.40462],[7.53996,59.39882],[7.59539,59.37673],[7.59669,59.36596],[7.61248,59.34847],[7.61208,59.33898],[7.60979,59.33622],[7.61548,59.33135],[7.61428,59.32841],[7.62533,59.33225],[7.64325,59.33374],[7.67334,59.33259],[7.69616,59.32675],[7.71594,59.29005],[7.72506,59.26085],[7.73769,59.25124],[7.74646,59.2507],[7.7513,59.23495],[7.75784,59.22845],[7.78049,59.22068],[7.77474,59.21389],[7.76282,59.21435],[7.74936,59.20771],[7.74367,59.19846],[7.74934,59.19474],[7.7457,59.19122],[7.74654,59.18909],[7.74352,59.18375],[7.73887,59.17909],[7.73614,59.17075],[7.73228,59.16702],[7.72924,59.16733],[7.74219,59.14389],[7.76922,59.13486],[7.78496,59.12403],[7.80532,59.11706],[7.81439,59.10475],[7.82872,59.09051],[7.82821,59.08907],[7.84742,59.07745],[7.86784,59.0601],[7.86751,59.05613],[7.87737,59.04684],[7.87689,59.03891],[7.90247,59.02567],[7.91121,59.00902],[7.9405,59.00544],[7.93715,58.99783],[7.94196,58.98694],[7.96385,58.97427],[7.96809,58.96741],[7.98533,58.96163],[8.00944,58.9647],[8.03641,58.95413],[8.05522,58.95017],[8.09168,58.94848],[8.0974,58.95184],[8.1219,58.95499],[8.13672,58.9611],[8.135,58.96377],[8.11303,58.96641],[8.10695,58.96421],[8.08916,58.96508],[8.07948,58.97216],[8.09763,58.9754],[8.12715,58.98502],[8.1555,58.98156],[8.17329,58.98234],[8.19412,58.97593],[8.22236,58.97035],[8.22588,58.96348],[8.26973,58.94775],[8.27924,58.94187],[8.29389,58.93668],[8.30754,58.92662],[8.30994,58.91946],[8.32647,58.91654],[8.39031,58.91231],[8.41945,58.90554],[8.42051,58.90335],[8.43103,58.90173],[8.4334,58.89908],[8.47643,58.8869],[8.50305,58.908],[8.57545,58.93144],[8.58007,58.9258],[8.58647,58.92219],[8.61044,58.91365],[8.63281,58.89302],[8.63824,58.89166],[8.63959,58.8891],[8.63701,58.88765],[8.63796,58.88595],[8.65118,58.87912],[8.65598,58.87304],[8.65342,58.86941],[8.72172,58.85069],[8.73117,58.83951],[8.74372,58.8314],[8.76276,58.83548],[8.78644,58.84356],[8.78992,58.85533],[8.78869,58.86225],[8.79248,58.86447],[8.78113,58.86758],[8.79798,58.88437],[8.81123,58.89302],[8.81477,58.9027],[8.81803,58.90592],[8.83074,58.91257],[8.81313,58.91784],[8.78768,58.92949],[8.76167,58.93737],[8.75447,58.94273],[8.762,58.94849],[8.82221,58.96986],[8.83223,58.97803],[8.83418,58.98809],[8.93968,58.9861],[8.99488,58.99323],[9.00097,58.98769],[9.00239,58.98325],[9.00096,58.98024],[9.00887,58.97717],[9.01318,58.96558],[9.03467,58.93261],[9.05099,58.92489],[9.07285,58.91132],[9.12458,58.89386],[9.16053,58.88496],[9.16668,58.8793],[9.18281,58.86245],[9.1902,58.84543],[9.19203,58.81448],[9.2079,58.81314],[9.19634,58.80345],[9.23093,58.79603],[9.27462,58.7957],[9.30498,58.77203],[9.31308,58.77436],[9.31772,58.77724],[9.32106,58.78248],[9.32883,58.78522],[9.35388,58.77682],[9.66888,58.6033],[9.35397,58.41973],[9.31985,58.39967]]]]}}]}