{"type":"FeatureCollection","license":"Boundary data © Kartverket, CC BY 4.0, via ws.geonorge.no/kommuneinfo (2024 boundaries)","features":[{"type":"Feature","properties":{"nr":"3905","name":"Tønsberg","county":"Vestfold"},"geometry":{"type":"MultiPolygon","coordinates":[[[[10.48379,59.23704],[10.48388,59.23515],[10.47731,59.22758],[10.46152,59.23438],[10.45796,59.23723],[10.45251,59.23876],[10.44961,59.24188],[10.45077,59.24442],[10.44707,59.2465],[10.43866,59.24846],[10.43636,59.25732],[10.42325,59.2592],[10.41722,59.25559],[10.40902,59.25635],[10.4087,59.25812],[10.40645,59.25853],[10.40312,59.26154],[10.39606,59.26511],[10.39326,59.26521],[10.39443,59.2671],[10.39307,59.27114],[10.3846,59.27067],[10.3785,59.25869],[10.37688,59.24721],[10.36013,59.24771],[10.35886,59.24446],[10.35593,59.24296],[10.3534,59.24518],[10.35405,59.24841],[10.34739,59.24696],[10.34768,59.24884],[10.33167,59.25074],[10.32614,59.26889],[10.31396,59.26865],[10.31147,59.26635],[10.30429,59.26631],[10.30478,59.27073],[10.30926,59.26999],[10.30723,59.27517],[10.30769,59.27787],[10.30957,59.27946],[10.30248,59.27921],[10.29908,59.2778],[10.28522,59.27886],[10.28388,59.28387],[10.2817,59.28581],[10.28381,59.28763],[10.28183,59.28815],[10.28344,59.28959],[10.2815,59.28996],[10.28344,59.29131],[10.27866,59.29203],[10.28571,59.29381],[10.28783,59.29675],[10.28702,59.30069],[10.28128,59.30094],[10.27778,59.30204],[10.27794,59.30368],[10.27465,59.30527],[10.26879,59.30639],[10.26749,59.31133],[10.26054,59.31879],[10.25797,59.31883],[10.25425,59.31566],[10.25337,59.31227],[10.24243,59.31267],[10.23143,59.30988],[10.2292,59.31302],[10.23174,59.3166],[10.23232,59.32435],[10.22778,59.32805],[10.22621,59.32685],[10.22109,59.32754],[10.21281,59.32998],[10.20639,59.33363],[10.1976,59.34707],[10.19718,59.35063],[10.19504,59.35182],[10.19572,59.35329],[10.17546,59.34975],[10.17502,59.3558],[10.17243,59.36018],[10.17306,59.3632],[10.16396,59.36448],[10.16416,59.36621],[10.15935,59.37228],[10.15188,59.37366],[10.15303,59.37857],[10.15157,59.38048],[10.15443,59.38852],[10.14917,59.38457],[10.14024,59.38145],[10.13037,59.38174],[10.12907,59.38266],[10.13087,59.3846],[10.12466,59.38639],[10.12008,59.38568],[10.12047,59.38645],[10.11799,59.3873],[10.10991,59.38513],[10.10089,59.38525],[10.07542,59.38174],[10.06611,59.38371],[10.04263,59.3818],[10.04432,59.38691],[10.04774,59.3915],[10.05325,59.39549],[10.05818,59.40941],[10.0623,59.42454],[10.06098,59.43945],[10.06254,59.4545],[10.08406,59.45421],[10.09404,59.4512],[10.09707,59.45277],[10.10026,59.45145],[10.10257,59.44758],[10.11824,59.44886],[10.14827,59.44691],[10.14204,59.45263],[10.13602,59.45598],[10.13554,59.4581],[10.14626,59.45723],[10.1423,59.46293],[10.16039,59.46431],[10.15518,59.47184],[10.16995,59.47378],[10.17122,59.47556],[10.16978,59.47946],[10.17788,59.4745],[10.1853,59.47312],[10.18792,59.47131],[10.1903,59.47299],[10.19133,59.47949],[10.20043,59.48245],[10.21465,59.48096],[10.216,59.47228],[10.22243,59.46784],[10.22509,59.4632],[10.22717,59.46285],[10.2254,59.46198],[10.22721,59.45795],[10.22496,59.45639],[10.22676,59.45424],[10.22708,59.45039],[10.22911,59.44845],[10.23438,59.44818],[10.2397,59.44962],[10.24341,59.44861],[10.24355,59.45086],[10.24899,59.45182],[10.2486,59.45562],[10.2596,59.45479],[10.25807,59.45992],[10.26003,59.45975],[10.26291,59.45635],[10.26793,59.45701],[10.26916,59.45535],[10.27329,59.45547],[10.27016,59.45854],[10.26921,59.46169],[10.27189,59.46298],[10.27453,59.46255],[10.27499,59.45763],[10.28089,59.45318],[10.28525,59.45556],[10.29361,59.45614],[10.29711,59.4581],[10.30361,59.45691],[10.30164,59.4534],[10.30913,59.45441],[10.31118,59.45034],[10.31678,59.45274],[10.3192,59.45274],[10.32083,59.45088],[10.32356,59.45561],[10.32223,59.45725],[10.32476,59.45894],[10.32347,59.45971],[10.3245,59.46162],[10.32304,59.46613],[10.32593,59.46632],[10.32794,59.46159],[10.33142,59.46144],[10.33242,59.45912],[10.33898,59.46088],[10.3443,59.45843],[10.34172,59.46273],[10.34612,59.46133],[10.34735,59.45854],[10.34801,59.46104],[10.34945,59.45573],[10.34858,59.45141],[10.35289,59.45095],[10.35449,59.44963],[10.35297,59.4488],[10.35416,59.44739],[10.35204,59.44646],[10.35339,59.44453],[10.3497,59.44254],[10.34583,59.43705],[10.34742,59.43355],[10.34632,59.43154],[10.34236,59.43031],[10.33536,59.43109],[10.3335,59.42908],[10.33634,59.42806],[10.33686,59.42341],[10.3358,59.42076],[10.34145,59.41997],[10.34223,59.41885],[10.33638,59.41746],[10.33668,59.41399],[10.34198,59.41367],[10.3423,59.41074],[10.33912,59.41057],[10.33784,59.40549],[10.34174,59.40553],[10.34687,59.40254],[10.34595,59.40116],[10.34682,59.39869],[10.34978,59.39654],[10.35269,59.39795],[10.35343,59.39997],[10.35615,59.40001],[10.35647,59.40375],[10.35769,59.40412],[10.36245,59.40332],[10.36691,59.40052],[10.37373,59.40085],[10.37218,59.39462],[10.36917,59.39466],[10.374,59.39156],[10.37392,59.38445],[10.37585,59.38281],[10.37717,59.37614],[10.37873,59.37501],[10.38311,59.3751],[10.38091,59.37383],[10.38417,59.37221],[10.38448,59.37067],[10.383,59.36958],[10.38583,59.36203],[10.39118,59.36196],[10.38911,59.356],[10.39052,59.35026],[10.40008,59.34948],[10.41035,59.35125],[10.41427,59.35242],[10.4132,59.35318],[10.41405,59.35547],[10.41769,59.35529],[10.41805,59.35637],[10.4225,59.35697],[10.42329,59.35471],[10.42832,59.35127],[10.44194,59.35119],[10.44393,59.34689],[10.45501,59.34555],[10.45805,59.34632],[10.45763,59.34149],[10.46748,59.34281],[10.49939,59.35516],[10.55037,59.3428],[10.57824,59.34094],[10.59079,59.29722],[10.59033,59.26848],[10.56892,59.26848],[10.52691,59.25496],[10.50658,59.24123],[10.49991,59.24022],[10.49396,59.24813],[10.48777,59.25086],[10.48325,59.24832],[10.48365,59.23984],[10.48379,59.23704]]],[[[10.38551,59.37165],[10.38906,59.37109],[10.38973,59.36981],[10.38795,59.36593],[10.39481,59.36509],[10.39595,59.37396],[10.39337,59.3734],[10.39187,59.37531],[10.38745,59.37666],[10.38504,59.37518],[10.38546,59.37207],[10.38551,59.37165]]]]}},{"type":"Feature","properties":{"nr":"3907","name":"Sandefjord","county":"Vestfold"},"geometry":{"type":"MultiPolygon","coordinates":[[[[10.10783,59.19551],[10.11793,59.19273],[10.12117,59.19342],[10.1281,59.18856],[10.14068,59.17591],[10.14115,59.17008],[10.13495,59.1655],[10.12779,59.16354],[10.1268,59.16096],[10.13358,59.16015],[10.13216,59.15761],[10.12851,59.1559],[10.13068,59.15498],[10.12835,59.15224],[10.11852,59.15018],[10.12013,59.14706],[10.11917,59.14506],[10.12015,59.14226],[10.1221,59.14214],[10.122,59.14061],[10.11938,59.1398],[10.11929,59.13815],[10.13258,59.13226],[10.13869,59.12662],[10.14568,59.12489],[10.1337,59.11702],[10.13444,59.11562],[10.13619,59.11459],[10.14324,59.11839],[10.14927,59.11802],[10.15377,59.11352],[10.15203,59.11312],[10.15338,59.11145],[10.15544,59.11028],[10.15282,59.11266],[10.15703,59.11089],[10.15909,59.10762],[10.15652,59.10779],[10.16027,59.10634],[10.16563,59.10704],[10.16688,59.09919],[10.169,59.09769],[10.17464,59.09696],[10.18712,59.0986],[10.18835,59.0975],[10.18756,59.09719],[10.19078,59.08861],[10.19092,59.08492],[10.19229,59.08346],[10.19045,59.08217],[10.19524,59.0798],[10.19885,59.08054],[10.20297,59.07931],[10.20792,59.07474],[10.21401,59.0737],[10.21397,59.07126],[10.21829,59.06923],[10.22263,59.07036],[10.22721,59.06835],[10.23589,59.07094],[10.23771,59.0631],[10.24813,59.06025],[10.25068,59.03436],[10.30092,58.9622],[10.28554,58.77441],[10.35937,58.77128],[10.37528,58.96055],[10.33475,59.03658],[10.36367,59.07589],[10.34496,59.09719],[10.33349,59.12533],[10.3384,59.13393],[10.33115,59.14007],[10.33023,59.1511],[10.33509,59.1536],[10.34141,59.17817],[10.36241,59.21359],[10.37472,59.22045],[10.38129,59.232],[10.38105,59.2443],[10.37688,59.24721],[10.36051,59.24778],[10.35886,59.24446],[10.3558,59.24297],[10.3534,59.24518],[10.35405,59.24841],[10.34739,59.24696],[10.34768,59.24884],[10.33167,59.25074],[10.32614,59.26889],[10.31396,59.26865],[10.31147,59.26635],[10.30429,59.26631],[10.30478,59.27073],[10.30926,59.26999],[10.30723,59.27517],[10.30769,59.27787],[10.30957,59.27946],[10.30248,59.27921],[10.29908,59.2778],[10.28522,59.27886],[10.28388,59.28387],[10.2817,59.28581],[10.28381,59.28763],[10.28183,59.28815],[10.28344,59.28959],[10.2815,59.28996],[10.28344,59.29131],[10.27866,59.29203],[10.28571,59.29381],[10.28783,59.29675],[10.28702,59.30069],[10.28128,59.30094],[10.27778,59.30204],[10.27794,59.30368],[10.27465,59.30527],[10.26879,59.30639],[10.26749,59.31133],[10.26054,59.31879],[10.25797,59.31883],[10.25425,59.31566],[10.25337,59.31227],[10.24243,59.31267],[10.23066,59.31022],[10.2292,59.31302],[10.23174,59.3166],[10.2328,59.32258],[10.23232,59.32435],[10.22778,59.32805],[10.22621,59.32685],[10.22109,59.32754],[10.21281,59.32998],[10.20639,59.33363],[10.1976,59.34707],[10.19718,59.35063],[10.19504,59.35182],[10.19572,59.35329],[10.17546,59.34975],[10.17502,59.3558],[10.17243,59.36018],[10.17306,59.3632],[10.16396,59.36448],[10.16416,59.36621],[10.15935,59.37228],[10.1524,59.37298],[10.15173,59.37469],[10.15303,59.37857],[10.15154,59.38024],[10.15443,59.38852],[10.14917,59.38457],[10.14024,59.38145],[10.13037,59.38174],[10.12907,59.38266],[10.13087,59.3846],[10.12466,59.38639],[10.12008,59.38568],[10.12047,59.38645],[10.11799,59.3873],[10.10991,59.38513],[10.10089,59.38525],[10.07542,59.38174],[10.06611,59.38371],[10.04263,59.3818],[10.04006,59.37759],[10.04091,59.36798],[10.03774,59.36171],[10.03532,59.36156],[10.0356,59.36065],[10.03196,59.35797],[10.03109,59.35335],[10.02898,59.35039],[10.01003,59.33393],[10.01164,59.33057],[10.0176,59.32645],[10.01353,59.32483],[10.01473,59.3227],[10.01294,59.31941],[10.01523,59.31585],[10.01387,59.31436],[10.01858,59.30576],[10.01577,59.30366],[10.01633,59.30268],[10.01338,59.3015],[10.01308,59.2996],[10.01611,59.29402],[10.01541,59.29272],[10.01745,59.28726],[10.00953,59.28667],[9.99256,59.26708],[9.99788,59.26169],[10.00344,59.26253],[10.0057,59.25643],[10.00451,59.25321],[10.00814,59.24882],[10.01107,59.24905],[10.01925,59.24554],[10.02168,59.24009],[10.03067,59.23383],[10.03156,59.22756],[10.04331,59.22668],[10.04575,59.22148],[10.04874,59.21982],[10.06478,59.21869],[10.06777,59.21203],[10.07556,59.20396],[10.07689,59.19889],[10.09792,59.19753],[10.10767,59.1956],[10.10783,59.19551]]],[[[10.14204,59.10667],[10.13073,59.11181],[10.1256,59.1085],[10.12008,59.10703],[10.11768,59.10023],[10.14307,59.09798],[10.14473,59.10203],[10.13916,59.10333],[10.14086,59.10413],[10.14088,59.10514],[10.13934,59.10511],[10.14017,59.10604],[10.14204,59.10667]]]]}},{"type":"Feature","properties":{"nr":"3909","name":"Larvik","county":"Vestfold"},"geometry":{"type":"MultiPolygon","coordinates":[[[[9.88548,59.16926],[9.85469,59.1643],[9.8313,59.16389],[9.82594,59.15999],[9.82477,59.15761],[9.82736,59.15555],[9.82927,59.13964],[9.82058,59.12947],[9.82945,59.12507],[9.84706,59.11329],[9.85615,59.09881],[9.85353,59.09041],[9.85412,59.08788],[9.85239,59.08036],[9.84994,59.07389],[9.84838,59.07288],[9.83832,59.07251],[9.84203,59.06279],[9.83887,59.05565],[9.83863,59.05144],[9.83997,59.04845],[9.83922,59.04425],[9.83472,59.03725],[9.82486,59.04249],[9.81753,59.0408],[9.81293,59.03601],[9.81283,59.03403],[9.82079,59.03314],[9.83619,59.02315],[9.83455,58.99781],[9.78254,59.02997],[9.78108,59.01183],[9.76485,59.01004],[9.76447,59.00107],[9.79518,58.89822],[9.96976,58.72045],[10.07383,58.74792],[10.27092,58.77503],[10.28554,58.77441],[10.30092,58.9622],[10.25068,59.03436],[10.24813,59.06025],[10.23771,59.0631],[10.23589,59.07094],[10.22721,59.06835],[10.22263,59.07036],[10.21829,59.06923],[10.21397,59.07126],[10.21401,59.0737],[10.20792,59.07474],[10.20297,59.07931],[10.19885,59.08054],[10.19524,59.0798],[10.19045,59.08217],[10.19229,59.08346],[10.19092,59.08492],[10.19078,59.08861],[10.18756,59.09719],[10.18835,59.0975],[10.18712,59.0986],[10.17464,59.09696],[10.169,59.09769],[10.16688,59.09919],[10.16563,59.10704],[10.16027,59.10634],[10.15652,59.10779],[10.15909,59.10762],[10.15703,59.11089],[10.15282,59.11266],[10.15544,59.11028],[10.15338,59.11145],[10.15203,59.11312],[10.15377,59.11352],[10.14927,59.11802],[10.14324,59.11839],[10.13619,59.11459],[10.13444,59.11562],[10.1337,59.11702],[10.14568,59.12489],[10.13869,59.12662],[10.13258,59.13226],[10.11929,59.13815],[10.11938,59.1398],[10.122,59.14061],[10.1221,59.14214],[10.12015,59.14226],[10.11917,59.14506],[10.12013,59.14706],[10.11852,59.15018],[10.12835,59.15224],[10.13068,59.15498],[10.12851,59.1559],[10.13216,59.15761],[10.13358,59.16015],[10.1268,59.16096],[10.12779,59.16354],[10.13495,59.1655],[10.14115,59.17008],[10.14068,59.17591],[10.1281,59.18856],[10.12117,59.19342],[10.11722,59.19285],[10.09792,59.19753],[10.07689,59.19889],[10.07556,59.20396],[10.06777,59.21203],[10.06478,59.21869],[10.04874,59.21982],[10.04575,59.22148],[10.04331,59.22668],[10.03156,59.22756],[10.03067,59.23383],[10.02168,59.24009],[10.01925,59.24554],[10.01107,59.24905],[10.00814,59.24882],[10.00451,59.25321],[10.0057,59.25643],[10.00344,59.26253],[9.99788,59.26169],[9.99256,59.26708],[10.00953,59.28667],[10.01745,59.28726],[10.01541,59.29272],[10.01611,59.29402],[10.01308,59.2996],[10.01338,59.3015],[10.01633,59.30268],[10.01577,59.30366],[10.01858,59.30576],[10.01387,59.31436],[10.01523,59.31585],[10.01294,59.31941],[10.01473,59.3227],[10.01353,59.32483],[10.0176,59.32645],[10.01164,59.33057],[10.01003,59.33393],[10.02898,59.35039],[10.03109,59.35335],[10.03196,59.35797],[10.0356,59.36065],[10.03532,59.36156],[10.03774,59.36171],[10.04091,59.36798],[10.04025,59.37828],[10.04774,59.3915],[10.05325,59.39549],[10.05618,59.40292],[10.0623,59.42454],[10.06098,59.43945],[10.06381,59.45825],[10.06189,59.47042],[10.05997,59.47303],[10.03966,59.46737],[10.02286,59.46466],[10.02134,59.46242],[10.02243,59.46086],[10.01327,59.45852],[10.00228,59.45995],[9.99944,59.46283],[9.99832,59.467],[9.98704,59.46766],[9.97874,59.46604],[9.96275,59.46796],[9.94478,59.46829],[9.94315,59.46633],[9.93806,59.46577],[9.93704,59.46459],[9.93721,59.45951],[9.92056,59.45553],[9.90818,59.45583],[9.8748,59.45996],[9.85295,59.45833],[9.84543,59.46355],[9.84144,59.463],[9.8321,59.46772],[9.81911,59.46918],[9.77513,59.45703],[9.7585,59.45828],[9.7714,59.43737],[9.77809,59.412],[9.77937,59.39036],[9.77667,59.38072],[9.77072,59.37863],[9.76942,59.37563],[9.77319,59.36301],[9.78281,59.35033],[9.7715,59.3427],[9.75534,59.3249],[9.77679,59.31611],[9.81063,59.28896],[9.81058,59.28225],[9.83623,59.27196],[9.84948,59.26234],[9.86949,59.25186],[9.87174,59.24634],[9.8714,59.23941],[9.87421,59.23347],[9.87597,59.2237],[9.87812,59.22073],[9.85715,59.21555],[9.86353,59.21151],[9.86895,59.20487],[9.88504,59.19313],[9.89642,59.177],[9.88548,59.16926]],[[10.11852,59.102],[10.12008,59.10703],[10.1256,59.1085],[10.13073,59.11181],[10.14204,59.10667],[10.13961,59.10576],[10.14086,59.10413],[10.13916,59.10333],[10.14443,59.10282],[10.14481,59.10113],[10.1433,59.09812],[10.1402,59.09759],[10.13025,59.09986],[10.11768,59.10023],[10.11833,59.10166],[10.11852,59.102]]]]}},{"type":"Feature","properties":{"nr":"3911","name":"Færder","county":"Vestfold"},"geometry":{"type":"MultiPolygon","coordinates":[[[[10.4379,59.25139],[10.43866,59.24846],[10.44707,59.2465],[10.45077,59.24442],[10.44961,59.24188],[10.45251,59.23876],[10.45796,59.23723],[10.46152,59.23438],[10.47731,59.22758],[10.48388,59.23515],[10.48325,59.24832],[10.48777,59.25086],[10.49396,59.24813],[10.49991,59.24022],[10.50658,59.24123],[10.52691,59.25496],[10.56892,59.26848],[10.59033,59.26848],[10.60501,59.25232],[10.64157,59.20291],[10.65505,59.19196],[10.65098,59.13282],[10.62272,59.1117],[10.67502,59.04529],[10.66044,59.02482],[10.62853,58.95459],[10.5931,58.76096],[10.35937,58.77128],[10.37528,58.96055],[10.33475,59.03658],[10.36367,59.07589],[10.34496,59.09719],[10.33349,59.12533],[10.3384,59.13393],[10.33115,59.14007],[10.33023,59.1511],[10.33509,59.1536],[10.34141,59.17817],[10.36241,59.21359],[10.37472,59.22045],[10.38129,59.232],[10.38105,59.2443],[10.37683,59.24689],[10.3785,59.25869],[10.3846,59.27067],[10.39307,59.27114],[10.39443,59.2671],[10.39326,59.26521],[10.39606,59.26511],[10.40312,59.26154],[10.40645,59.25853],[10.4087,59.25812],[10.40902,59.25635],[10.41722,59.25559],[10.42325,59.2592],[10.43636,59.25732],[10.4379,59.25139]]]]}},{"type":"Feature","properties":{"nr":"4001","name":"Porsgrunn","county":"Telemark"},"geometry":{"type":"MultiPolygon","coordinates":[[[[9.68563,59.05182],[9.68855,59.04959],[9.71634,59.04726],[9.74245,59.02469],[9.76485,59.01004],[9.78108,59.01183],[9.78254,59.02997],[9.83455,58.99781],[9.83619,59.02315],[9.82079,59.03314],[9.81283,59.03403],[9.81293,59.03601],[9.81753,59.0408],[9.82486,59.04249],[9.83472,59.03725],[9.83922,59.04425],[9.83997,59.04845],[9.83863,59.05144],[9.83887,59.05565],[9.84203,59.06279],[9.83832,59.07251],[9.84838,59.07288],[9.84994,59.07389],[9.85239,59.08036],[9.85412,59.08788],[9.85353,59.09041],[9.85615,59.09881],[9.84706,59.11329],[9.82945,59.12507],[9.82058,59.12947],[9.82927,59.13964],[9.82736,59.15555],[9.82477,59.15761],[9.82594,59.15999],[9.8313,59.16389],[9.85469,59.1643],[9.88548,59.16926],[9.89642,59.177],[9.89625,59.17793],[9.88504,59.19313],[9.87503,59.20043],[9.86983,59.1981],[9.83058,59.19481],[9.79489,59.20923],[9.78214,59.20283],[9.78326,59.20142],[9.7797,59.2017],[9.77821,59.19421],[9.77656,59.19179],[9.77214,59.18972],[9.76434,59.18965],[9.76168,59.18827],[9.75794,59.18316],[9.74775,59.17583],[9.74908,59.17479],[9.74618,59.17351],[9.74247,59.16857],[9.72968,59.16188],[9.72872,59.16046],[9.72956,59.15915],[9.72429,59.15317],[9.71605,59.15116],[9.71393,59.14913],[9.70566,59.1524],[9.70129,59.15737],[9.70511,59.15881],[9.70076,59.16024],[9.69434,59.15759],[9.69391,59.15621],[9.68839,59.15795],[9.68161,59.15543],[9.67302,59.15417],[9.66437,59.15997],[9.65808,59.15941],[9.657,59.15566],[9.64016,59.15307],[9.63442,59.15069],[9.63398,59.14975],[9.63557,59.14917],[9.63328,59.14819],[9.63008,59.14342],[9.6178,59.13994],[9.61614,59.13336],[9.60685,59.12905],[9.61042,59.12746],[9.61308,59.12455],[9.60633,59.11419],[9.60657,59.10914],[9.62947,59.09978],[9.64549,59.06403],[9.6537,59.05646],[9.66481,59.05288],[9.67694,59.05304],[9.68563,59.05182]]]]}},{"type":"Feature","properties":{"nr":"4003","name":"Skien","county":"Telemark"},"geometry":{"type":"MultiPolygon","coordinates":[[[[9.29326,59.34183],[9.33119,59.35496],[9.34622,59.35586],[9.37792,59.35014],[9.407,59.35523],[9.37406,59.36421],[9.37644,59.37538],[9.38779,59.37989],[9.38088,59.39906],[9.39034,59.40621],[9.39154,59.41611],[9.38955,59.41843],[9.40295,59.43828],[9.40532,59.44761],[9.404,59.45801],[9.40488,59.46165],[9.4345,59.46147],[9.44604,59.46287],[9.46285,59.47285],[9.47174,59.48221],[9.52348,59.48573],[9.53574,59.48358],[9.55203,59.48725],[9.5846,59.46642],[9.58499,59.46562],[9.57958,59.46433],[9.57889,59.4622],[9.58684,59.45063],[9.62138,59.43844],[9.62462,59.4249],[9.60625,59.41185],[9.61996,59.39318],[9.64437,59.37971],[9.63397,59.35336],[9.62404,59.34946],[9.58161,59.35045],[9.58058,59.32967],[9.58765,59.31176],[9.60147,59.30783],[9.60646,59.30513],[9.61466,59.29744],[9.62511,59.29118],[9.62864,59.29046],[9.62652,59.28682],[9.63209,59.28429],[9.63403,59.28112],[9.63995,59.27795],[9.65459,59.27422],[9.68728,59.25261],[9.71455,59.25303],[9.71543,59.24864],[9.72233,59.24009],[9.7363,59.2302],[9.74474,59.22842],[9.74969,59.22384],[9.7693,59.21196],[9.7797,59.2017],[9.77821,59.19421],[9.77405,59.19027],[9.76434,59.18965],[9.76168,59.18827],[9.75794,59.18316],[9.74775,59.17583],[9.74908,59.17479],[9.74618,59.17351],[9.74247,59.16857],[9.72968,59.16188],[9.72872,59.16046],[9.72956,59.15915],[9.72429,59.15317],[9.71605,59.15116],[9.71393,59.14913],[9.70566,59.1524],[9.70129,59.15737],[9.70511,59.15881],[9.70076,59.16024],[9.69434,59.15759],[9.69391,59.15621],[9.68839,59.15795],[9.68161,59.15543],[9.67302,59.15417],[9.66437,59.15997],[9.65808,59.15941],[9.657,59.15566],[9.64016,59.15307],[9.63442,59.15069],[9.63398,59.14975],[9.63557,59.14917],[9.63328,59.14819],[9.63008,59.14342],[9.6178,59.13994],[9.61614,59.13336],[9.60685,59.12905],[9.61042,59.12746],[9.61308,59.12455],[9.60633,59.11419],[9.60657,59.10914],[9.57289,59.11154],[9.57119,59.1169],[9.55248,59.12316],[9.53784,59.12333],[9.52642,59.12574],[9.51409,59.12155],[9.4766,59.09973],[9.47437,59.08418],[9.4866,59.07731],[9.46677,59.06939],[9.45003,59.06044],[9.44541,59.05972],[9.44502,59.05845],[9.44281,59.05878],[9.41502,59.04526],[9.30448,59.086],[9.28962,59.09071],[9.2813,59.08836],[9.2712,59.09448],[9.27146,59.09559],[9.26959,59.09669],[9.25781,59.1002],[9.25753,59.10263],[9.26005,59.10939],[9.26458,59.11358],[9.25814,59.11593],[9.25626,59.11973],[9.25015,59.12376],[9.24697,59.12441],[9.2417,59.13189],[9.234,59.13613],[9.23123,59.14163],[9.22765,59.14458],[9.24882,59.1532],[9.25205,59.17607],[9.25922,59.18011],[9.276,59.18542],[9.30043,59.19629],[9.30406,59.1967],[9.30123,59.20287],[9.30238,59.20487],[9.29553,59.20524],[9.28259,59.21047],[9.27841,59.21358],[9.26656,59.21485],[9.26566,59.21659],[9.26937,59.21778],[9.26865,59.21877],[9.27663,59.2219],[9.28725,59.22211],[9.31074,59.21867],[9.3103,59.21768],[9.31203,59.2169],[9.31881,59.21547],[9.33876,59.22279],[9.35951,59.22757],[9.39209,59.22524],[9.40017,59.22703],[9.41165,59.22526],[9.42033,59.23123],[9.4314,59.2297],[9.443,59.23346],[9.43634,59.24046],[9.41897,59.24587],[9.41956,59.24893],[9.40662,59.26198],[9.39022,59.268],[9.36193,59.2847],[9.31283,59.28679],[9.26053,59.33507],[9.28045,59.33765],[9.29316,59.3418],[9.29326,59.34183]],[[9.28119,59.16504],[9.2899,59.1508],[9.24882,59.1532],[9.27064,59.17138],[9.27901,59.16865],[9.28119,59.16504]]]]}},{"type":"Feature","properties":{"nr":"4012","name":"Bamble","county":"Telemark"},"geometry":{"type":"MultiPolygon","coordinates":[[[[9.61101,58.92358],[9.62986,58.929],[9.68441,58.93269],[9.71423,58.9444],[9.78313,58.93579],[9.76447,59.00107],[9.76485,59.01004],[9.74245,59.02469],[9.71634,59.04726],[9.68855,59.04959],[9.68563,59.05182],[9.67694,59.05304],[9.66481,59.05288],[9.6537,59.05646],[9.64549,59.06403],[9.62947,59.09978],[9.60657,59.10914],[9.57289,59.11154],[9.57119,59.1169],[9.55248,59.12316],[9.53784,59.12333],[9.52642,59.12574],[9.50975,59.11948],[9.4766,59.09973],[9.47437,59.08418],[9.4866,59.07731],[9.46677,59.06939],[9.45003,59.06044],[9.44541,59.05972],[9.44502,59.05845],[9.44281,59.05878],[9.41502,59.04526],[9.3987,59.0513],[9.30224,59.00092],[9.32208,58.99453],[9.34596,58.9889],[9.364,58.97983],[9.39189,58.9454],[9.3949,58.94951],[9.40018,58.95326],[9.41909,58.94696],[9.41895,58.9441],[9.41583,58.94209],[9.41845,58.93491],[9.44428,58.93808],[9.46423,58.94477],[9.46283,58.9393],[9.46822,58.93706],[9.4802,58.93627],[9.5232,58.925],[9.53076,58.92849],[9.53801,58.92717],[9.55994,58.91616],[9.57526,58.91329],[9.61101,58.92358]]]]}},{"type":"Feature","properties":{"nr":"4014","name":"Kragerø","county":"Telemark"},"geometry":{"type":"MultiPolygon","coordinates":[[[[9.5232,58.925],[9.53076,58.92849],[9.53801,58.92717],[9.55994,58.91616],[9.57526,58.91329],[9.62986,58.929],[9.68441,58.93269],[9.71423,58.9444],[9.78313,58.93579],[9.79518,58.89822],[9.96976,58.72045],[9.78836,58.67228],[9.66888,58.6033],[9.39183,58.75568],[9.36814,58.76985],[9.36615,58.76995],[9.36608,58.77144],[9.35388,58.77682],[9.32883,58.78522],[9.32106,58.78248],[9.31772,58.77724],[9.31308,58.77436],[9.30498,58.77203],[9.30316,58.7746],[9.29088,58.78254],[9.28654,58.78774],[9.27462,58.7957],[9.23093,58.79603],[9.19634,58.80345],[9.2079,58.81314],[9.19203,58.81448],[9.19059,58.82269],[9.19042,58.84482],[9.18281,58.86245],[9.16053,58.88496],[9.17835,58.89657],[9.18943,58.90122],[9.19257,58.9068],[9.21237,58.92515],[9.21383,58.92776],[9.21285,58.93473],[9.21395,58.941],[9.22464,58.94887],[9.2373,58.9618],[9.24934,58.97083],[9.27347,58.98476],[9.29031,58.9962],[9.30224,59.00092],[9.32208,58.99453],[9.34596,58.9889],[9.364,58.97983],[9.39189,58.9454],[9.3949,58.94951],[9.40018,58.95326],[9.41909,58.94696],[9.41895,58.9441],[9.41583,58.94209],[9.41845,58.93491],[9.44428,58.93808],[9.46423,58.94477],[9.46283,58.9393],[9.46822,58.93706],[9.4802,58.93627],[9.51796,58.92639],[9.5232,58.925]]]]}},{"type":"Feature","properties":{"nr":"4018","name":"Nome","county":"Telemark"},"geometry":{"type":"MultiPolygon","coordinates":[[[[9.10677,59.21849],[9.11176,59.21719],[9.12538,59.22391],[9.14297,59.21903],[9.14406,59.21612],[9.15211,59.20709],[9.17235,59.19747],[9.17989,59.1912],[9.18448,59.18442],[9.18318,59.17426],[9.18036,59.17063],[9.18092,59.16408],[9.16821,59.14235],[9.22545,59.14439],[9.24882,59.1532],[9.25205,59.17607],[9.25922,59.18011],[9.276,59.18542],[9.30043,59.19629],[9.30406,59.1967],[9.30123,59.20287],[9.30238,59.20487],[9.29553,59.20524],[9.28259,59.21047],[9.27841,59.21358],[9.26656,59.21485],[9.26566,59.21659],[9.26937,59.21778],[9.26865,59.21877],[9.27663,59.2219],[9.28725,59.22211],[9.31074,59.21867],[9.3103,59.21768],[9.31203,59.2169],[9.31881,59.21547],[9.33876,59.22279],[9.35951,59.22757],[9.39209,59.22524],[9.40017,59.22703],[9.41165,59.22526],[9.42033,59.23123],[9.4314,59.2297],[9.443,59.23346],[9.43634,59.24046],[9.41897,59.24587],[9.41956,59.24893],[9.40662,59.26198],[9.39022,59.268],[9.36193,59.2847],[9.31283,59.28679],[9.26135,59.33477],[9.25129,59.33839],[9.2271,59.32741],[9.22153,59.32716],[9.21121,59.32214],[9.19978,59.32679],[9.18604,59.32781],[9.16837,59.3396],[9.1646,59.34353],[9.15314,59.34376],[9.13822,59.34149],[9.13902,59.34403],[9.13149,59.34962],[9.12653,59.36369],[9.12714,59.36968],[9.11482,59.37841],[9.11742,59.37871],[9.12682,59.37201],[9.13008,59.37172],[9.11659,59.38528],[9.11524,59.38452],[9.11317,59.37916],[9.10206,59.38444],[9.09206,59.38228],[9.08203,59.38367],[9.07038,59.3826],[9.05932,59.38365],[9.05327,59.37477],[9.01149,59.35725],[8.98304,59.36572],[8.97905,59.36333],[8.97402,59.36289],[8.95022,59.35503],[8.90345,59.34335],[8.88175,59.35157],[8.87508,59.33693],[8.87007,59.33386],[8.87665,59.32608],[8.87825,59.31645],[8.88279,59.30246],[8.85628,59.30083],[8.82917,59.30258],[8.82569,59.29382],[8.82137,59.29013],[8.82056,59.27659],[8.86852,59.25355],[8.89604,59.26091],[8.91746,59.2628],[8.94269,59.25675],[8.97064,59.2643],[9.01755,59.22395],[9.0361,59.21855],[9.04761,59.20683],[9.05563,59.20793],[9.07853,59.20709],[9.08378,59.20226],[9.08473,59.20393],[9.09198,59.20662],[9.09724,59.21158],[9.10445,59.21396],[9.1033,59.21611],[9.10429,59.21792],[9.10677,59.21853],[9.10677,59.21849]]],[[[9.24912,59.15318],[9.27064,59.17138],[9.27901,59.16865],[9.2899,59.1508],[9.25313,59.15295],[9.24912,59.15318]]]]}},{"type":"Feature","properties":{"nr":"4020","name":"Midt-Telemark","county":"Telemark"},"geometry":{"type":"MultiPolygon","coordinates":[[[[9.39702,59.42949],[9.38955,59.41843],[9.39154,59.41611],[9.39034,59.40621],[9.38088,59.39906],[9.38779,59.37989],[9.37644,59.37538],[9.37406,59.36421],[9.407,59.35523],[9.37792,59.35014],[9.34622,59.35586],[9.33119,59.35496],[9.28045,59.33765],[9.26053,59.33507],[9.25129,59.33839],[9.2271,59.32741],[9.22153,59.32716],[9.21121,59.32214],[9.19978,59.32679],[9.18604,59.32781],[9.16837,59.3396],[9.1646,59.34353],[9.15314,59.34376],[9.13822,59.34149],[9.13902,59.34403],[9.13149,59.34962],[9.12653,59.36369],[9.12714,59.36968],[9.11482,59.37841],[9.11742,59.37871],[9.12682,59.37201],[9.13008,59.37172],[9.11659,59.38528],[9.11524,59.38452],[9.11317,59.37916],[9.10206,59.38444],[9.09206,59.38228],[9.08203,59.38367],[9.07038,59.3826],[9.05932,59.38365],[9.05327,59.37477],[9.01149,59.35725],[8.98304,59.36572],[8.97905,59.36333],[8.97402,59.36289],[8.95022,59.35503],[8.90345,59.34335],[8.88175,59.35157],[8.88799,59.35786],[8.85955,59.36506],[8.85889,59.36605],[8.86038,59.36634],[8.86083,59.36919],[8.86606,59.37475],[8.87344,59.3865],[8.86128,59.38987],[8.83605,59.39201],[8.81974,59.39533],[8.82473,59.40521],[8.82582,59.41103],[8.82942,59.41543],[8.83568,59.41998],[8.82622,59.42893],[8.83359,59.43214],[8.83941,59.42979],[8.85142,59.43053],[8.85482,59.43444],[8.85673,59.43343],[8.86486,59.43359],[8.86283,59.43688],[8.86781,59.4397],[8.91005,59.446],[8.90827,59.45083],[8.91007,59.45211],[8.90433,59.45639],[8.90158,59.45995],[8.90091,59.46298],[8.90389,59.46886],[8.90386,59.47534],[8.91759,59.47515],[8.90314,59.48828],[8.88827,59.49012],[8.92475,59.49903],[8.97607,59.50756],[8.99216,59.51175],[9.0035,59.51689],[9.006,59.52554],[9.00484,59.52886],[9.00544,59.53453],[9.02374,59.5359],[9.03461,59.53554],[9.0697,59.52907],[9.07515,59.52467],[9.09945,59.52815],[9.11571,59.53407],[9.12284,59.53396],[9.13074,59.52841],[9.14633,59.52024],[9.152,59.51365],[9.15088,59.5094],[9.15891,59.49861],[9.16483,59.49614],[9.1612,59.49471],[9.16308,59.49454],[9.17121,59.48826],[9.17845,59.48577],[9.18884,59.48874],[9.18787,59.48922],[9.19417,59.49132],[9.19799,59.49418],[9.19252,59.49761],[9.19249,59.499],[9.19464,59.49994],[9.2071,59.50178],[9.22065,59.50556],[9.2265,59.49722],[9.25766,59.50381],[9.2935,59.5152],[9.30202,59.51462],[9.30844,59.50607],[9.30328,59.4999],[9.31567,59.48311],[9.31309,59.48061],[9.31355,59.47627],[9.32554,59.47588],[9.34226,59.47681],[9.35396,59.47929],[9.36284,59.47891],[9.37794,59.4834],[9.40375,59.48315],[9.42515,59.48989],[9.44133,59.492],[9.46926,59.49109],[9.47174,59.48221],[9.46285,59.47285],[9.44604,59.46287],[9.4345,59.46147],[9.40488,59.46165],[9.404,59.45801],[9.40532,59.44761],[9.40295,59.43828],[9.39777,59.43063],[9.39702,59.42949]]]]}},{"type":"Feature","properties":{"nr":"4022","name":"Seljord","county":"Telemark"},"geometry":{"type":"MultiPolygon","coordinates":[[[[8.77482,59.38363],[8.76229,59.39347],[8.74872,59.3963],[8.73606,59.37984],[8.67955,59.3777],[8.63498,59.373],[8.63466,59.39347],[8.63769,59.41579],[8.61495,59.41241],[8.60911,59.42655],[8.61226,59.43017],[8.61392,59.43697],[8.61919,59.4429],[8.61413,59.45338],[8.60148,59.45337],[8.60332,59.45522],[8.60001,59.45547],[8.5753,59.45491],[8.57249,59.45281],[8.56068,59.45355],[8.55316,59.44933],[8.54871,59.45247],[8.54746,59.45677],[8.53797,59.46594],[8.53985,59.46784],[8.53878,59.4686],[8.52564,59.46493],[8.5236,59.46648],[8.52448,59.47039],[8.51408,59.47379],[8.51424,59.48213],[8.50004,59.49618],[8.49679,59.50906],[8.48916,59.5136],[8.47513,59.52045],[8.46622,59.51663],[8.46036,59.51688],[8.43141,59.5264],[8.42485,59.53122],[8.41225,59.5327],[8.39544,59.53],[8.375,59.53472],[8.37327,59.54556],[8.37472,59.55365],[8.36231,59.56165],[8.34961,59.5656],[8.34086,59.56698],[8.31942,59.57413],[8.30149,59.57236],[8.30062,59.57109],[8.29062,59.57123],[8.26109,59.55836],[8.2412,59.56674],[8.23976,59.56867],[8.25396,59.57588],[8.25859,59.576],[8.26263,59.57282],[8.26076,59.58011],[8.25121,59.58858],[8.25859,59.59148],[8.26873,59.59779],[8.2788,59.60027],[8.27717,59.60453],[8.26962,59.60455],[8.26285,59.60639],[8.26347,59.60922],[8.26745,59.61319],[8.26758,59.61505],[8.27332,59.61713],[8.27345,59.61913],[8.26898,59.62249],[8.26862,59.62719],[8.25495,59.63869],[8.24731,59.64274],[8.24858,59.64581],[8.24701,59.64751],[8.23098,59.65083],[8.23616,59.65964],[8.2323,59.6659],[8.22527,59.67181],[8.21584,59.67559],[8.21864,59.68348],[8.23548,59.68823],[8.24695,59.6885],[8.24268,59.69023],[8.23902,59.69517],[8.22987,59.69584],[8.22307,59.69477],[8.21247,59.69591],[8.20649,59.70632],[8.21162,59.71856],[8.22312,59.73213],[8.239,59.73669],[8.24405,59.73984],[8.24867,59.73951],[8.24919,59.73712],[8.25916,59.73422],[8.26746,59.73869],[8.29288,59.7423],[8.28614,59.74982],[8.30084,59.77948],[8.35131,59.78769],[8.35958,59.78661],[8.36572,59.78937],[8.36818,59.79234],[8.3705,59.79267],[8.36984,59.79406],[8.37091,59.79507],[8.39968,59.78074],[8.41668,59.77587],[8.45462,59.76045],[8.45607,59.75649],[8.45555,59.75352],[8.44245,59.74577],[8.44144,59.74307],[8.43937,59.74163],[8.44245,59.7362],[8.44242,59.72886],[8.45226,59.7207],[8.45718,59.71478],[8.45982,59.71017],[8.46083,59.70478],[8.47159,59.69143],[8.47629,59.69076],[8.47974,59.68803],[8.47814,59.68279],[8.48349,59.67414],[8.49656,59.66502],[8.49834,59.66135],[8.50507,59.65861],[8.50343,59.65707],[8.50476,59.65284],[8.51709,59.64864],[8.52022,59.64404],[8.52307,59.63042],[8.52966,59.62092],[8.53628,59.61472],[8.54429,59.61081],[8.55502,59.60749],[8.57007,59.6059],[8.57716,59.60296],[8.57861,59.60172],[8.58008,59.59602],[8.58037,59.58637],[8.5826,59.5846],[8.59783,59.58641],[8.59942,59.58343],[8.60948,59.58405],[8.62832,59.58903],[8.63202,59.58258],[8.65042,59.5816],[8.65857,59.5829],[8.68023,59.58094],[8.69752,59.58084],[8.69907,59.57634],[8.70454,59.57245],[8.71495,59.56175],[8.73442,59.55185],[8.75951,59.5474],[8.7661,59.53991],[8.76614,59.53729],[8.7678,59.53801],[8.77328,59.53238],[8.77928,59.52892],[8.77963,59.51872],[8.78993,59.50467],[8.81397,59.49283],[8.83014,59.48879],[8.85193,59.48953],[8.86239,59.49219],[8.90314,59.48828],[8.91759,59.47515],[8.90386,59.47534],[8.90389,59.46886],[8.90091,59.46298],[8.90158,59.45995],[8.90433,59.45639],[8.91007,59.45211],[8.90827,59.45083],[8.91005,59.446],[8.86781,59.4397],[8.86283,59.43688],[8.86486,59.43359],[8.85673,59.43343],[8.85482,59.43444],[8.85142,59.43053],[8.83941,59.42979],[8.83359,59.43214],[8.82622,59.42893],[8.83568,59.41998],[8.82942,59.41543],[8.82582,59.41103],[8.82473,59.40521],[8.81974,59.39533],[8.83605,59.39201],[8.86128,59.38987],[8.87344,59.3865],[8.86606,59.37475],[8.86083,59.36919],[8.86038,59.36634],[8.85889,59.36605],[8.8639,59.36368],[8.88799,59.35786],[8.88175,59.35157],[8.82714,59.35474],[8.79649,59.3634],[8.78304,59.37037],[8.78365,59.37182],[8.78194,59.3737],[8.78308,59.37661],[8.77491,59.38358],[8.77482,59.38363]]]]}},{"type":"Feature","properties":{"nr":"4028","name":"Kviteseid","county":"Telemark"},"geometry":{"type":"MultiPolygon","coordinates":[[[[8.63769,59.41579],[8.63466,59.39347],[8.63498,59.373],[8.67955,59.3777],[8.73606,59.37984],[8.74872,59.3963],[8.76229,59.39347],[8.76747,59.39026],[8.78296,59.37678],[8.78194,59.3737],[8.78365,59.37182],[8.78304,59.37037],[8.79649,59.3634],[8.82714,59.35474],[8.88175,59.35157],[8.87508,59.33693],[8.87007,59.33386],[8.87665,59.32608],[8.87825,59.31645],[8.88279,59.30246],[8.85628,59.30083],[8.82917,59.30258],[8.82569,59.29382],[8.82137,59.29013],[8.82056,59.27659],[8.79807,59.27118],[8.78013,59.26842],[8.74502,59.26591],[8.71022,59.27636],[8.68067,59.26725],[8.62445,59.2967],[8.58559,59.28969],[8.58044,59.28153],[8.57969,59.27757],[8.61096,59.26434],[8.60567,59.25294],[8.59423,59.24622],[8.59209,59.24279],[8.57284,59.24575],[8.56044,59.24604],[8.53813,59.25027],[8.51683,59.24984],[8.49723,59.26299],[8.48759,59.26727],[8.46469,59.26357],[8.44506,59.2632],[8.42015,59.26489],[8.40983,59.2633],[8.40398,59.26588],[8.38742,59.26705],[8.36526,59.26187],[8.35288,59.261],[8.32995,59.26771],[8.31993,59.27248],[8.3162,59.27226],[8.30801,59.27817],[8.29622,59.28212],[8.28468,59.28411],[8.2596,59.30065],[8.20883,59.32025],[8.2066,59.32343],[8.19626,59.32879],[8.15419,59.34529],[8.14121,59.35286],[8.15167,59.35717],[8.15891,59.3581],[8.16509,59.36611],[8.1734,59.37114],[8.20207,59.37023],[8.20448,59.37349],[8.21105,59.37718],[8.24435,59.38965],[8.24625,59.39254],[8.23876,59.39956],[8.24148,59.40534],[8.31715,59.39785],[8.32649,59.40613],[8.33425,59.42192],[8.3317,59.42482],[8.33098,59.42864],[8.32446,59.43289],[8.3023,59.43049],[8.2848,59.43369],[8.28499,59.44377],[8.27169,59.45463],[8.26802,59.4736],[8.29168,59.48548],[8.3247,59.48726],[8.32797,59.51638],[8.32324,59.52256],[8.3193,59.53175],[8.32038,59.53412],[8.32605,59.53584],[8.32558,59.53914],[8.32382,59.5398],[8.32457,59.54098],[8.33996,59.54761],[8.33033,59.56269],[8.31423,59.56946],[8.30062,59.57109],[8.30149,59.57236],[8.30799,59.57324],[8.31942,59.57413],[8.34086,59.56698],[8.36028,59.56231],[8.36583,59.55966],[8.37484,59.55341],[8.37327,59.54556],[8.375,59.53472],[8.39544,59.53],[8.41225,59.5327],[8.42485,59.53122],[8.43141,59.5264],[8.46036,59.51688],[8.46622,59.51663],[8.47513,59.52045],[8.48916,59.5136],[8.49679,59.50906],[8.50004,59.49618],[8.51424,59.48213],[8.51408,59.47379],[8.52448,59.47039],[8.5236,59.46648],[8.52564,59.46493],[8.53878,59.4686],[8.53985,59.46784],[8.53797,59.46594],[8.54746,59.45677],[8.54871,59.45247],[8.55316,59.44933],[8.56068,59.45355],[8.57249,59.45281],[8.5753,59.45491],[8.60001,59.45547],[8.60332,59.45522],[8.60148,59.45337],[8.61413,59.45338],[8.61919,59.4429],[8.61392,59.43697],[8.61226,59.43017],[8.60911,59.42655],[8.61495,59.41241],[8.63769,59.41579]]]]}},{"type":"Feature","properties":{"nr":"4030","name":"Nissedal","county":"Telemark"},"geometry":{"type":"MultiPolygon","coordinates":[[[[8.50028,58.90582],[8.50305,58.908],[8.51804,58.91311],[8.56489,58.92713],[8.57545,58.93144],[8.58007,58.9258],[8.58647,58.92219],[8.61044,58.91365],[8.63281,58.89302],[8.63824,58.89166],[8.63959,58.8891],[8.63701,58.88765],[8.63796,58.88595],[8.65118,58.87912],[8.65276,58.87545],[8.65598,58.87304],[8.65342,58.86941],[8.69118,58.85818],[8.72172,58.85069],[8.72353,58.84981],[8.7253,58.84505],[8.73117,58.83951],[8.74372,58.8314],[8.76276,58.83548],[8.76871,58.8385],[8.78644,58.84356],[8.78992,58.85533],[8.78869,58.86225],[8.79248,58.86447],[8.78659,58.86723],[8.78113,58.86758],[8.79798,58.88437],[8.81123,58.89302],[8.81477,58.9027],[8.81803,58.90592],[8.83074,58.91257],[8.81313,58.91784],[8.78768,58.92949],[8.77397,58.9328],[8.76167,58.93737],[8.75447,58.94273],[8.762,58.94849],[8.82221,58.96986],[8.83223,58.97803],[8.83418,58.98809],[8.78886,59.00159],[8.7887,59.00281],[8.73645,59.0244],[8.72362,59.02448],[8.69259,59.04528],[8.68467,59.04794],[8.68224,59.05114],[8.67184,59.05722],[8.67487,59.06853],[8.66819,59.07629],[8.66687,59.08059],[8.65993,59.09108],[8.66227,59.09907],[8.68199,59.10267],[8.70955,59.10474],[8.7228,59.10787],[8.73422,59.11225],[8.73717,59.1173],[8.72577,59.12587],[8.71809,59.13352],[8.69683,59.14489],[8.69791,59.15183],[8.70158,59.15317],[8.70037,59.15828],[8.68978,59.16767],[8.68972,59.17148],[8.69222,59.17888],[8.67763,59.18885],[8.66486,59.2024],[8.65823,59.20633],[8.64888,59.2145],[8.62097,59.2309],[8.6068,59.2346],[8.59926,59.24053],[8.58605,59.24431],[8.56044,59.24604],[8.53813,59.25027],[8.51683,59.24984],[8.49723,59.26299],[8.48759,59.26727],[8.46469,59.26357],[8.44506,59.2632],[8.42015,59.26489],[8.40983,59.2633],[8.40398,59.26588],[8.38742,59.26705],[8.36526,59.26187],[8.35288,59.261],[8.34914,59.2549],[8.33498,59.24536],[8.30798,59.23347],[8.28647,59.23219],[8.28678,59.22422],[8.30018,59.19458],[8.30056,59.18215],[8.29795,59.17229],[8.30278,59.17145],[8.32518,59.15405],[8.33577,59.14055],[8.33251,59.137],[8.31901,59.13112],[8.3031,59.11817],[8.37547,59.0789],[8.37588,59.06241],[8.36859,59.03634],[8.36993,59.03513],[8.36843,59.02879],[8.38013,59.02429],[8.39078,59.02668],[8.40609,59.02383],[8.40047,59.0225],[8.3991,59.01498],[8.38751,59.01083],[8.3437,58.98339],[8.31678,58.98152],[8.31233,58.9793],[8.31522,58.97671],[8.31983,58.97582],[8.32586,58.97244],[8.32376,58.96814],[8.33284,58.96403],[8.32741,58.95986],[8.33143,58.9559],[8.33516,58.95393],[8.3454,58.95259],[8.34803,58.94984],[8.33529,58.94417],[8.3354,58.94307],[8.33793,58.94235],[8.33814,58.93955],[8.31977,58.9373],[8.30942,58.93356],[8.30505,58.92863],[8.30833,58.92573],[8.30994,58.91946],[8.32647,58.91654],[8.34077,58.91671],[8.36708,58.91317],[8.39031,58.91231],[8.41945,58.90554],[8.42051,58.90335],[8.43103,58.90173],[8.4334,58.89908],[8.44628,58.89652],[8.47643,58.8869],[8.49984,58.90548],[8.50028,58.90582]]]]}},{"type":"Feature","properties":{"nr":"4034","name":"Tokke","county":"Telemark"},"geometry":{"type":"MultiPolygon","coordinates":[[[[8.10526,59.54995],[8.13237,59.54758],[8.17362,59.54804],[8.1785,59.55029],[8.17476,59.55564],[8.17544,59.55786],[8.17403,59.55901],[8.17626,59.56001],[8.17628,59.56267],[8.17904,59.5637],[8.17806,59.56721],[8.20223,59.56192],[8.21457,59.56726],[8.21878,59.57038],[8.21969,59.57348],[8.23509,59.57805],[8.24076,59.58092],[8.24902,59.57543],[8.24929,59.57365],[8.23976,59.56867],[8.2412,59.56674],[8.26109,59.55836],[8.29062,59.57123],[8.30434,59.57102],[8.31423,59.56946],[8.33033,59.56269],[8.33996,59.54761],[8.32457,59.54098],[8.32382,59.5398],[8.32558,59.53914],[8.32605,59.53584],[8.32038,59.53412],[8.3193,59.53175],[8.32324,59.52256],[8.32797,59.51638],[8.3247,59.48726],[8.29168,59.48548],[8.26802,59.4736],[8.27169,59.45463],[8.28499,59.44377],[8.2848,59.43369],[8.3023,59.43049],[8.32446,59.43289],[8.33098,59.42864],[8.3317,59.42482],[8.33425,59.42192],[8.3277,59.408],[8.31715,59.39785],[8.24148,59.40534],[8.23876,59.39956],[8.24625,59.39254],[8.24435,59.38965],[8.21105,59.37718],[8.20448,59.37349],[8.20207,59.37023],[8.1734,59.37114],[8.16509,59.36611],[8.15891,59.3581],[8.15167,59.35717],[8.1388,59.35158],[8.13184,59.35171],[8.13549,59.34914],[8.13523,59.34709],[8.13058,59.34079],[8.1202,59.33908],[8.09598,59.34344],[8.09104,59.34597],[8.08775,59.35117],[8.08389,59.35293],[8.08384,59.35504],[8.07451,59.35476],[8.06122,59.35658],[8.02948,59.35174],[8.01149,59.34514],[8.00177,59.34305],[7.99855,59.33512],[7.99754,59.335],[7.99392,59.33712],[7.98067,59.33899],[7.97852,59.34483],[7.97445,59.34358],[7.9693,59.35035],[7.94561,59.34989],[7.93586,59.3514],[7.90865,59.35203],[7.8851,59.35057],[7.87374,59.35281],[7.85636,59.36012],[7.81488,59.3604],[7.80769,59.35906],[7.80444,59.35249],[7.79862,59.34932],[7.79297,59.34995],[7.78886,59.34597],[7.78296,59.34603],[7.78071,59.33909],[7.75553,59.32664],[7.75533,59.32918],[7.69616,59.32675],[7.67334,59.33259],[7.64325,59.33374],[7.62533,59.33225],[7.61434,59.3284],[7.61548,59.33135],[7.6111,59.33396],[7.60979,59.33622],[7.61208,59.33898],[7.61248,59.34847],[7.61028,59.34958],[7.59669,59.36596],[7.59539,59.37673],[7.53996,59.39882],[7.54432,59.40462],[7.57438,59.42381],[7.58189,59.43312],[7.58218,59.43474],[7.56607,59.43835],[7.57933,59.44124],[7.58309,59.44445],[7.62563,59.46178],[7.59465,59.47881],[7.58462,59.50126],[7.53628,59.52403],[7.51455,59.56148],[7.55156,59.58662],[7.57696,59.59015],[7.57943,59.58823],[7.58724,59.58963],[7.59903,59.58855],[7.61801,59.59531],[7.64484,59.59954],[7.66509,59.59641],[7.67274,59.59709],[7.69015,59.59342],[7.69595,59.59066],[7.71141,59.58672],[7.72651,59.58502],[7.74684,59.58706],[7.77568,59.598],[7.78855,59.59935],[7.79326,59.59822],[7.80977,59.60107],[7.83418,59.59833],[7.8457,59.59553],[7.83764,59.58832],[7.8251,59.58592],[7.8301,59.57413],[7.8377,59.5632],[7.83801,59.55898],[7.84205,59.55062],[7.84002,59.54456],[7.85114,59.54478],[7.85556,59.54102],[7.86083,59.53929],[7.88344,59.53544],[7.88728,59.53231],[7.89863,59.52932],[7.90359,59.52331],[7.90154,59.51936],[7.90335,59.51748],[7.90097,59.5111],[7.90564,59.50721],[7.92917,59.4988],[7.94987,59.49377],[7.96621,59.48725],[7.97182,59.49148],[7.97778,59.49274],[7.98801,59.49806],[7.97845,59.50507],[7.97972,59.50829],[7.98858,59.51016],[7.98969,59.51345],[7.99169,59.51514],[7.9897,59.5171],[7.99038,59.51949],[8.00284,59.52274],[8.00387,59.52407],[8.00371,59.52889],[8.00493,59.53042],[8.00301,59.53272],[8.00406,59.53408],[8.00009,59.53569],[7.99971,59.53938],[7.99443,59.53932],[7.98775,59.54127],[7.98291,59.54602],[7.9838,59.54958],[7.98979,59.5495],[7.99367,59.55137],[7.99122,59.55317],[7.99057,59.5565],[8.00264,59.55758],[8.00324,59.55899],[8.00123,59.56325],[8.01692,59.56182],[8.04856,59.5538],[8.05613,59.55312],[8.06789,59.56445],[8.0754,59.56575],[8.08068,59.57103],[8.09492,59.57112],[8.09966,59.56931],[8.10183,59.56532],[8.10521,59.55427],[8.10472,59.55231],[8.10526,59.54995]]]]}},{"type":"Feature","properties":{"nr":"4036","name":"Vinje","county":"Telemark"},"geometry":{"type":"MultiPolygon","coordinates":[[[[8.00066,59.56294],[8.00324,59.55899],[8.00264,59.55758],[7.99057,59.5565],[7.99122,59.55317],[7.99367,59.55137],[7.98979,59.5495],[7.9838,59.54958],[7.98291,59.54602],[7.98775,59.54127],[7.99443,59.53932],[7.99971,59.53938],[8.00009,59.53569],[8.00406,59.53408],[8.00301,59.53272],[8.00493,59.53042],[8.00371,59.52889],[8.00387,59.52407],[8.00284,59.52274],[7.99038,59.51949],[7.9897,59.5171],[7.99169,59.51514],[7.98969,59.51345],[7.98858,59.51016],[7.97972,59.50829],[7.97845,59.50507],[7.98801,59.49806],[7.97778,59.49274],[7.97182,59.49148],[7.96621,59.48725],[7.94987,59.49377],[7.92917,59.4988],[7.90564,59.50721],[7.90097,59.5111],[7.90335,59.51748],[7.90154,59.51936],[7.90359,59.52331],[7.89863,59.52932],[7.88728,59.53231],[7.88344,59.53544],[7.86083,59.53929],[7.85556,59.54102],[7.85114,59.54478],[7.84002,59.54456],[7.84205,59.55062],[7.83801,59.55898],[7.8377,59.5632],[7.8301,59.57413],[7.8251,59.58592],[7.83764,59.58832],[7.8457,59.59553],[7.84218,59.5966],[7.80977,59.60107],[7.79326,59.59822],[7.78816,59.59933],[7.77568,59.598],[7.74684,59.58706],[7.72651,59.58502],[7.71141,59.58672],[7.69595,59.59066],[7.69015,59.59342],[7.67274,59.59709],[7.66509,59.59641],[7.65142,59.5981],[7.64844,59.59978],[7.61801,59.59531],[7.59903,59.58855],[7.58724,59.58963],[7.57943,59.58823],[7.57696,59.59015],[7.55156,59.58662],[7.53357,59.59424],[7.53757,59.59705],[7.53674,59.60007],[7.53789,59.60162],[7.50612,59.6078],[7.47467,59.63171],[7.48374,59.63669],[7.46972,59.64373],[7.45439,59.64728],[7.45016,59.64502],[7.45125,59.64152],[7.44763,59.64286],[7.446,59.64614],[7.44676,59.64697],[7.4456,59.64736],[7.44988,59.64935],[7.43783,59.65531],[7.44232,59.6587],[7.41839,59.65597],[7.40158,59.65948],[7.40743,59.64989],[7.39641,59.64708],[7.39262,59.63286],[7.36877,59.6346],[7.36717,59.63502],[7.36925,59.637],[7.34015,59.64453],[7.3377,59.64563],[7.33728,59.64787],[7.33208,59.64698],[7.33168,59.64525],[7.32824,59.64339],[7.32,59.64589],[7.31691,59.64775],[7.31874,59.65079],[7.30073,59.65811],[7.29285,59.65848],[7.28565,59.65555],[7.26068,59.66275],[7.25062,59.66408],[7.24411,59.66688],[7.23595,59.66522],[7.21467,59.67269],[7.21296,59.67425],[7.17428,59.68606],[7.11008,59.7006],[7.11631,59.71399],[7.11045,59.76332],[7.09629,59.78278],[7.14547,59.81178],[7.14201,59.82247],[7.14976,59.82704],[7.15813,59.82847],[7.16096,59.83245],[7.16013,59.83628],[7.1532,59.84096],[7.15626,59.84391],[7.156,59.84505],[7.14419,59.8472],[7.14374,59.84803],[7.14583,59.85013],[7.14135,59.85363],[7.14778,59.85926],[7.15416,59.86253],[7.15811,59.86722],[7.15818,59.86947],[7.14919,59.87676],[7.14674,59.88027],[7.1473,59.88183],[7.16814,59.90339],[7.23291,59.96271],[7.25908,59.97592],[7.26326,59.98206],[7.26646,59.98374],[7.28796,59.98864],[7.29445,59.98722],[7.30729,59.98843],[7.32043,59.98596],[7.35242,59.99592],[7.37648,60.00001],[7.43643,60.01923],[7.44265,60.05732],[7.48826,60.09893],[7.646,60.12685],[7.76467,60.11593],[7.81284,60.10265],[7.85336,60.11565],[7.85638,60.11305],[7.86232,60.11173],[7.87746,60.11331],[7.88058,60.11598],[7.88151,60.11597],[7.88049,60.11382],[7.88283,60.11338],[7.90746,60.11353],[7.91998,60.11051],[7.9249,60.10806],[7.93503,60.10739],[7.94186,60.10457],[7.94265,60.10284],[7.94663,60.10054],[7.96644,60.09409],[7.96907,60.09226],[7.97508,60.08339],[7.98297,60.0822],[7.98835,60.07642],[7.99558,60.07602],[8.00546,60.07266],[8.01012,60.06898],[8.02028,60.06417],[8.02125,60.06142],[8.01387,60.06069],[8.02709,60.05528],[8.01345,60.05337],[8.0118,60.05092],[8.01245,60.05014],[8.01735,60.05038],[8.02382,60.04878],[8.02339,60.04757],[8.02126,60.04862],[8.01747,60.04643],[8.02407,60.04665],[8.02364,60.04573],[8.02612,60.0455],[8.02484,60.04633],[8.02609,60.04726],[8.03343,60.04708],[8.0437,60.04146],[8.08174,60.03497],[8.0862,60.03555],[8.09173,60.03948],[8.09855,60.03987],[8.09938,60.03968],[8.09793,60.03812],[8.10022,60.03621],[8.10759,60.03421],[8.10696,60.03256],[8.11182,60.03122],[8.11305,60.02887],[8.11479,60.0284],[8.1144,60.02655],[8.12052,60.02425],[8.11984,60.01957],[8.12098,60.01884],[8.11944,60.01834],[8.12297,60.01645],[8.12319,60.01472],[8.09481,60.00269],[8.10416,59.99312],[8.12413,59.98568],[8.15259,59.96222],[8.16013,59.96652],[8.1625,59.96501],[8.16204,59.96118],[8.16579,59.95901],[8.1727,59.94673],[8.18895,59.93192],[8.18866,59.92914],[8.17006,59.90168],[8.17122,59.89598],[8.167,59.8941],[8.16916,59.88634],[8.16642,59.88491],[8.16271,59.8798],[8.16789,59.87911],[8.16725,59.87851],[8.16898,59.87817],[8.16779,59.87761],[8.17143,59.8768],[8.17875,59.86967],[8.17866,59.868],[8.17444,59.86531],[8.17021,59.85896],[8.16095,59.85356],[8.23155,59.83121],[8.26738,59.82175],[8.27515,59.82549],[8.26464,59.83005],[8.25884,59.83447],[8.26295,59.83595],[8.26377,59.83891],[8.2704,59.83645],[8.30342,59.83373],[8.32479,59.82861],[8.31804,59.82453],[8.31471,59.81967],[8.28093,59.81944],[8.28094,59.81544],[8.29127,59.80576],[8.30084,59.77948],[8.28614,59.74982],[8.29288,59.7423],[8.26746,59.73869],[8.25916,59.73422],[8.24919,59.73712],[8.24867,59.73951],[8.24405,59.73984],[8.239,59.73669],[8.22312,59.73213],[8.21162,59.71856],[8.20649,59.70632],[8.21247,59.69591],[8.22307,59.69477],[8.22987,59.69584],[8.23902,59.69517],[8.24268,59.69023],[8.24694,59.68853],[8.23548,59.68823],[8.21864,59.68348],[8.21584,59.67559],[8.22527,59.67181],[8.2323,59.6659],[8.23616,59.65964],[8.23098,59.65083],[8.24706,59.64747],[8.24858,59.64581],[8.24731,59.64274],[8.25495,59.63869],[8.26862,59.62719],[8.26898,59.62249],[8.27345,59.61913],[8.27306,59.61671],[8.26758,59.61505],[8.26745,59.61319],[8.26347,59.60922],[8.26285,59.60639],[8.26962,59.60455],[8.27717,59.60453],[8.2788,59.60027],[8.26873,59.59779],[8.25859,59.59148],[8.25121,59.58858],[8.26076,59.58011],[8.26263,59.57282],[8.25859,59.576],[8.25396,59.57588],[8.24929,59.57365],[8.24902,59.57543],[8.24076,59.58092],[8.23509,59.57805],[8.21969,59.57348],[8.21878,59.57038],[8.21457,59.56726],[8.20223,59.56192],[8.17806,59.56721],[8.17904,59.5637],[8.17628,59.56267],[8.17626,59.56001],[8.17403,59.55901],[8.17544,59.55786],[8.17476,59.55564],[8.1785,59.55029],[8.17362,59.54804],[8.13237,59.54758],[8.10526,59.54995],[8.10521,59.55427],[8.10183,59.56532],[8.09966,59.56931],[8.09492,59.57112],[8.08068,59.57103],[8.0754,59.56575],[8.06789,59.56445],[8.05613,59.55312],[8.04856,59.5538],[8.01692,59.56182],[8.00101,59.56313],[8.00066,59.56294]]]]}},{"type":"Feature","properties":{"nr":"4211","name":"Gjerstad","county":"Agder"},"geometry":{"type":"MultiPolygon","coordinates":[[[[8.92574,58.84625],[8.94355,58.83836],[8.94658,58.83583],[8.94396,58.83514],[8.96478,58.82513],[8.99288,58.8171],[9.00132,58.81353],[8.98665,58.80021],[9.00056,58.79354],[9.01424,58.78516],[9.018,58.78425],[9.01721,58.78067],[9.02057,58.77153],[9.02086,58.76529],[9.02429,58.76379],[9.03831,58.76324],[9.0421,58.76706],[9.04879,58.77087],[9.05808,58.78141],[9.06748,58.78956],[9.08147,58.79711],[9.08996,58.78987],[9.1227,58.79714],[9.13468,58.80147],[9.14159,58.80665],[9.14951,58.81563],[9.1519,58.81599],[9.15537,58.8145],[9.17227,58.82476],[9.19115,58.82988],[9.19042,58.84482],[9.18281,58.86245],[9.16053,58.88496],[9.13475,58.89226],[9.12458,58.89386],[9.09388,58.90546],[9.07285,58.91132],[9.05413,58.92174],[9.05099,58.92489],[9.03467,58.93261],[9.01318,58.96558],[9.00887,58.97717],[9.00096,58.98024],[9.00239,58.98325],[9.00074,58.98552],[9.00097,58.98769],[8.99488,58.99323],[8.93968,58.9861],[8.89057,58.98586],[8.83418,58.98809],[8.83223,58.97803],[8.82221,58.96986],[8.762,58.94849],[8.75447,58.94273],[8.76167,58.93737],[8.77397,58.9328],[8.78768,58.92949],[8.81313,58.91784],[8.83074,58.91257],[8.81803,58.90592],[8.81477,58.9027],[8.81123,58.89302],[8.79798,58.88437],[8.78128,58.86745],[8.78659,58.86723],[8.79248,58.86447],[8.80694,58.86727],[8.81898,58.87134],[8.83175,58.85995],[8.85669,58.85745],[8.85799,58.85351],[8.86521,58.85265],[8.88389,58.85383],[8.89751,58.85028],[8.91419,58.84911],[8.92498,58.8466],[8.92574,58.84625]]]]}},{"type":"Feature","properties":{"nr":"4217","name":"Åmli","county":"Agder"},"geometry":{"type":"MultiPolygon","coordinates":[[[[8.49121,58.89855],[8.50305,58.908],[8.53386,58.91841],[8.56489,58.92713],[8.57545,58.93144],[8.58007,58.9258],[8.58647,58.92219],[8.61044,58.91365],[8.63281,58.89302],[8.63824,58.89166],[8.63959,58.8891],[8.63701,58.88765],[8.63796,58.88595],[8.65118,58.87912],[8.65276,58.87545],[8.65598,58.87304],[8.65342,58.86941],[8.69118,58.85818],[8.72172,58.85069],[8.72353,58.84981],[8.7253,58.84505],[8.73117,58.83951],[8.74372,58.8314],[8.73115,58.82929],[8.714,58.82325],[8.69781,58.81956],[8.66921,58.80442],[8.66254,58.78657],[8.65266,58.77357],[8.63461,58.75378],[8.62989,58.75111],[8.62802,58.74647],[8.62177,58.74245],[8.62344,58.73488],[8.6317,58.72844],[8.64563,58.71304],[8.64438,58.71084],[8.64527,58.70833],[8.651,58.70071],[8.66236,58.70161],[8.67387,58.70424],[8.68955,58.69771],[8.7088,58.70472],[8.72111,58.69934],[8.72942,58.69063],[8.72325,58.68866],[8.72216,58.68779],[8.72278,58.68617],[8.71971,58.68475],[8.73306,58.67753],[8.7418,58.6703],[8.74826,58.66696],[8.75017,58.66367],[8.75374,58.66106],[8.75027,58.66014],[8.75971,58.65411],[8.75596,58.64083],[8.75294,58.6361],[8.72855,58.62493],[8.72024,58.62276],[8.7047,58.61434],[8.70044,58.62],[8.69186,58.61803],[8.68841,58.61848],[8.68824,58.62274],[8.69332,58.62541],[8.68483,58.63093],[8.67722,58.63282],[8.67001,58.63823],[8.67068,58.64063],[8.66727,58.64286],[8.66302,58.6493],[8.65659,58.65223],[8.64111,58.65235],[8.62162,58.6584],[8.61978,58.65993],[8.6084,58.66218],[8.60025,58.66237],[8.58363,58.65988],[8.58169,58.66044],[8.58138,58.66546],[8.5622,58.66569],[8.52807,58.66959],[8.51314,58.67202],[8.50147,58.67678],[8.47381,58.67473],[8.47239,58.6735],[8.47137,58.66911],[8.47857,58.65563],[8.49707,58.65134],[8.5007,58.648],[8.49976,58.64625],[8.50497,58.64384],[8.50174,58.64283],[8.49655,58.64472],[8.49202,58.64829],[8.4812,58.65109],[8.47049,58.64078],[8.46896,58.63756],[8.46158,58.6319],[8.45038,58.63025],[8.43623,58.62323],[8.40701,58.62921],[8.40804,58.63443],[8.40648,58.6412],[8.41277,58.64005],[8.41437,58.64557],[8.40017,58.65049],[8.38373,58.65075],[8.37536,58.65288],[8.38454,58.65933],[8.37955,58.66274],[8.35968,58.69633],[8.32764,58.6818],[8.3045,58.70032],[8.28505,58.70262],[8.26028,58.70266],[8.23601,58.69948],[8.21163,58.71135],[8.20253,58.72165],[8.19934,58.71805],[8.19208,58.71547],[8.16857,58.70322],[8.15298,58.69959],[8.06036,58.70511],[8.04836,58.70756],[8.02785,58.70908],[8.00385,58.70543],[7.98636,58.7073],[7.98243,58.71667],[7.9792,58.72007],[7.97968,58.72347],[7.97344,58.72995],[7.97618,58.73237],[7.99177,58.738],[7.9911,58.73994],[7.98776,58.74212],[7.98066,58.74093],[7.97849,58.73936],[7.97737,58.74009],[7.9765,58.74309],[7.9797,58.74332],[7.97899,58.75242],[7.98413,58.75151],[7.99593,58.75427],[7.99496,58.75581],[7.99242,58.75607],[7.99371,58.7569],[7.99421,58.7607],[7.99558,58.7614],[7.99153,58.7653],[7.991,58.77012],[7.98448,58.78031],[7.98549,58.78294],[7.98237,58.78752],[7.98111,58.79967],[7.98332,58.80056],[7.98498,58.80335],[7.99285,58.80577],[7.99793,58.80948],[7.99745,58.81334],[7.99961,58.81684],[8.00256,58.81933],[8.009,58.82176],[8.01647,58.8367],[8.00457,58.84109],[8.00733,58.8441],[8.01408,58.84473],[8.01684,58.84703],[8.00781,58.84978],[7.9988,58.86239],[7.98899,58.86387],[7.98892,58.86816],[7.9974,58.87104],[8.00539,58.87894],[8.00335,58.89041],[7.99429,58.89355],[7.98045,58.90522],[7.96138,58.91176],[7.96375,58.91849],[7.98605,58.93062],[8.00299,58.93786],[8.00061,58.94408],[8.00214,58.9535],[8.00944,58.9647],[8.0444,58.95193],[8.06026,58.94979],[8.07779,58.94992],[8.09168,58.94848],[8.0974,58.95184],[8.1219,58.95499],[8.13672,58.9611],[8.135,58.96377],[8.11399,58.9654],[8.11303,58.96641],[8.10695,58.96421],[8.10038,58.96555],[8.08916,58.96508],[8.07948,58.97216],[8.09763,58.9754],[8.12715,58.98502],[8.1555,58.98156],[8.17329,58.98234],[8.19412,58.97593],[8.22236,58.97035],[8.22588,58.96348],[8.23727,58.95813],[8.26973,58.94775],[8.27924,58.94187],[8.29389,58.93668],[8.30754,58.92662],[8.30994,58.91946],[8.32647,58.91654],[8.34077,58.91671],[8.36708,58.91317],[8.39031,58.91231],[8.41945,58.90554],[8.42051,58.90335],[8.43103,58.90173],[8.4334,58.89908],[8.44628,58.89652],[8.47643,58.8869],[8.49115,58.89851],[8.49121,58.89855]]]]}},{"type":"Feature","properties":{"nr":"4221","name":"Valle","county":"Agder"},"geometry":{"type":"MultiPolygon","coordinates":[[[[7.74643,59.24853],[7.74646,59.2507],[7.74526,59.25138],[7.73769,59.25124],[7.73831,59.25203],[7.72506,59.26085],[7.71667,59.2844],[7.71594,59.29005],[7.69616,59.32675],[7.67334,59.33259],[7.64325,59.33374],[7.62533,59.33225],[7.61428,59.32841],[7.61548,59.33135],[7.6111,59.33396],[7.60979,59.33622],[7.61208,59.33898],[7.61248,59.34847],[7.61028,59.34958],[7.59669,59.36596],[7.59539,59.37673],[7.53996,59.39882],[7.53822,59.3955],[7.51919,59.3872],[7.50538,59.38293],[7.50209,59.38021],[7.49482,59.38281],[7.48585,59.37741],[7.48394,59.37174],[7.47747,59.36792],[7.48361,59.36112],[7.47283,59.35661],[7.44573,59.34856],[7.45454,59.3414],[7.44396,59.33894],[7.43261,59.33427],[7.42868,59.33134],[7.42802,59.32913],[7.42855,59.32757],[7.43285,59.32563],[7.43341,59.31646],[7.43798,59.31092],[7.43823,59.30597],[7.43302,59.30323],[7.43203,59.2984],[7.41684,59.29431],[7.41553,59.28565],[7.40334,59.28437],[7.39907,59.28651],[7.39775,59.28995],[7.37555,59.28793],[7.36803,59.29586],[7.34984,59.29416],[7.34284,59.29788],[7.34273,59.29908],[7.33723,59.30249],[7.33708,59.30448],[7.32964,59.3067],[7.30552,59.29946],[7.29862,59.30045],[7.30206,59.29058],[7.29925,59.28792],[7.29837,59.28396],[7.28858,59.28292],[7.26863,59.28339],[7.25355,59.28144],[7.23926,59.27766],[7.22157,59.27932],[7.22582,59.28997],[7.18478,59.29378],[7.17843,59.29019],[7.17719,59.28894],[7.17816,59.28647],[7.17734,59.28514],[7.17258,59.28333],[7.15957,59.27077],[7.12355,59.26301],[7.05668,59.22947],[7.03819,59.21907],[7.03625,59.21601],[7.03338,59.21452],[7.00619,59.203],[7.00557,59.20115],[7.0073,59.19686],[7.00553,59.19438],[6.99638,59.1896],[7.00636,59.18629],[7.09529,59.17187],[7.17692,59.16116],[7.19717,59.15148],[7.20486,59.1431],[7.19902,59.14125],[7.19098,59.14201],[7.18587,59.1389],[7.17725,59.13725],[7.17113,59.13757],[7.16077,59.1345],[7.17332,59.12217],[7.17382,59.12044],[7.17187,59.11767],[7.15873,59.10893],[7.15898,59.09923],[7.15371,59.08588],[7.1561,59.07748],[7.15332,59.06436],[7.14429,59.04925],[7.14196,59.04303],[7.1427,59.04],[7.15392,59.02994],[7.17324,59.02215],[7.17506,59.01807],[7.17428,59.0169],[7.17789,59.01405],[7.17945,59.0106],[7.17745,59.00906],[7.17231,59.00953],[7.17044,59.00859],[7.17092,59.00742],[7.16895,59.00462],[7.1717,59.00177],[7.17084,59.00022],[7.16513,59.00217],[7.1474,59.00027],[7.12308,59.00328],[7.11291,59.00202],[7.10804,58.9984],[7.10705,58.99577],[7.11026,58.9874],[7.12606,58.97385],[7.12752,58.9693],[7.13924,58.96907],[7.14466,58.9645],[7.14609,58.96086],[7.14493,58.95864],[7.14726,58.95343],[7.1515,58.95418],[7.15351,58.95271],[7.15468,58.95059],[7.15311,58.94877],[7.15688,58.94699],[7.15936,58.94176],[7.17539,58.93936],[7.19074,58.94153],[7.20037,58.94524],[7.28681,58.97951],[7.31953,58.99762],[7.33638,59.00293],[7.37048,59.00389],[7.37088,59.00176],[7.39203,59.00451],[7.39279,59.00213],[7.3943,59.00144],[7.39095,59.00065],[7.38981,58.99801],[7.39394,58.99933],[7.39658,58.99803],[7.40329,58.9986],[7.40711,59.00214],[7.41129,59.0006],[7.43638,59.00903],[7.4564,59.01118],[7.46239,59.01486],[7.46231,59.01708],[7.46794,59.01692],[7.53951,59.02657],[7.55109,59.02659],[7.55744,59.02185],[7.55454,59.01962],[7.55633,59.0172],[7.55574,59.01611],[7.56747,59.01535],[7.58065,59.02784],[7.585,59.02692],[7.58696,59.03186],[7.59732,59.03374],[7.60501,59.04332],[7.61685,59.044],[7.61712,59.04142],[7.62301,59.0417],[7.62654,59.04021],[7.64139,59.04355],[7.65897,59.0424],[7.68479,59.04455],[7.69603,59.04609],[7.74048,59.05808],[7.77096,59.06486],[7.78079,59.07318],[7.82101,59.09814],[7.81439,59.10475],[7.80532,59.11706],[7.78496,59.12403],[7.76922,59.13486],[7.74219,59.14389],[7.73044,59.1634],[7.72924,59.16733],[7.73228,59.16702],[7.73404,59.17027],[7.73614,59.17075],[7.73887,59.17909],[7.74352,59.18375],[7.74654,59.18909],[7.7457,59.19122],[7.74934,59.19474],[7.74367,59.19846],[7.74936,59.20771],[7.75776,59.21276],[7.76282,59.21435],[7.77474,59.21389],[7.78049,59.22068],[7.75784,59.22845],[7.75707,59.23043],[7.7513,59.23495],[7.74644,59.2485],[7.74643,59.24853]]]]}},{"type":"Feature","properties":{"nr":"4222","name":"Bykle","county":"Agder"},"geometry":{"type":"MultiPolygon","coordinates":[[[[7.53628,59.52403],[7.51455,59.56148],[7.55156,59.58662],[7.53357,59.59424],[7.53757,59.59705],[7.53674,59.60007],[7.53789,59.60162],[7.50612,59.6078],[7.47467,59.63171],[7.48374,59.63669],[7.46972,59.64373],[7.45439,59.64728],[7.45016,59.64502],[7.45125,59.64152],[7.44763,59.64286],[7.446,59.64614],[7.44676,59.64697],[7.4456,59.64736],[7.44988,59.64935],[7.43783,59.65531],[7.44232,59.6587],[7.41839,59.65597],[7.40158,59.65948],[7.40743,59.64989],[7.39641,59.64708],[7.39262,59.63286],[7.36784,59.63475],[7.36925,59.637],[7.34015,59.64453],[7.3377,59.64563],[7.33728,59.64787],[7.33208,59.64698],[7.33018,59.64424],[7.32667,59.6437],[7.31731,59.64721],[7.31874,59.65079],[7.30073,59.65811],[7.29285,59.65848],[7.28565,59.65555],[7.26068,59.66275],[7.25062,59.66408],[7.24411,59.66688],[7.23595,59.66522],[7.21467,59.67269],[7.21112,59.66901],[7.19876,59.66693],[7.13839,59.66227],[7.09872,59.65129],[7.09229,59.62683],[7.08896,59.61973],[7.07218,59.61115],[7.06181,59.60347],[7.04859,59.58683],[7.01273,59.59645],[6.99184,59.59703],[6.97846,59.54133],[6.98026,59.5234],[6.96296,59.51645],[6.96808,59.51227],[6.97681,59.50924],[6.99978,59.50474],[7.00488,59.50202],[7.00558,59.50056],[7.00246,59.49868],[7.00111,59.49606],[7.0153,59.49134],[7.01638,59.48728],[7.02282,59.48276],[7.02288,59.4812],[7.00876,59.47411],[7.00417,59.46926],[7.00011,59.46694],[6.99775,59.46139],[6.95671,59.44471],[6.9527,59.44442],[6.94959,59.44582],[6.94642,59.44315],[6.92628,59.43676],[6.89903,59.43104],[6.88694,59.43079],[6.88283,59.4293],[6.89344,59.42071],[6.9314,59.40266],[6.93217,59.40027],[6.92525,59.40137],[6.92445,59.39983],[6.92538,59.39867],[6.92267,59.39766],[6.92414,59.39633],[6.92176,59.3948],[6.91803,59.39309],[6.91283,59.39531],[6.90883,59.39488],[6.90695,59.39203],[6.90125,59.39233],[6.89773,59.39525],[6.8909,59.39821],[6.86514,59.3684],[6.85943,59.3599],[6.85857,59.35227],[6.85461,59.34861],[6.84762,59.3351],[6.84278,59.331],[6.84128,59.32697],[6.83496,59.31946],[6.83158,59.31733],[6.82453,59.26988],[6.84076,59.25102],[6.8377,59.19259],[6.84758,59.18267],[6.9042,59.18552],[6.93917,59.18192],[6.93995,59.18713],[6.94132,59.18797],[6.98248,59.18816],[6.99638,59.1896],[7.00553,59.19438],[7.0073,59.19686],[7.00557,59.20115],[7.00619,59.203],[7.03338,59.21452],[7.03625,59.21601],[7.03819,59.21907],[7.05668,59.22947],[7.12355,59.26301],[7.15957,59.27077],[7.17258,59.28333],[7.17734,59.28514],[7.17816,59.28647],[7.17719,59.28894],[7.17843,59.29019],[7.18478,59.29378],[7.22582,59.28997],[7.22157,59.27932],[7.23926,59.27766],[7.25355,59.28144],[7.26863,59.28339],[7.28858,59.28292],[7.29837,59.28396],[7.29925,59.28792],[7.30206,59.29058],[7.29862,59.30045],[7.30552,59.29946],[7.32964,59.3067],[7.33708,59.30448],[7.33723,59.30249],[7.34273,59.29908],[7.34284,59.29788],[7.34984,59.29416],[7.36803,59.29586],[7.37555,59.28793],[7.39775,59.28995],[7.39907,59.28651],[7.40334,59.28437],[7.41553,59.28565],[7.41684,59.29431],[7.43203,59.2984],[7.43302,59.30323],[7.43823,59.30597],[7.43798,59.31092],[7.43341,59.31646],[7.43285,59.32563],[7.42855,59.32757],[7.42802,59.32913],[7.42868,59.33134],[7.43261,59.33427],[7.44396,59.33894],[7.45454,59.3414],[7.44573,59.34856],[7.47283,59.35661],[7.48361,59.36112],[7.47747,59.36792],[7.48394,59.37174],[7.48585,59.37741],[7.49482,59.38281],[7.50209,59.38021],[7.50538,59.38293],[7.51919,59.3872],[7.53822,59.3955],[7.54432,59.40462],[7.57438,59.42381],[7.58189,59.43312],[7.58218,59.43474],[7.56607,59.43835],[7.57933,59.44124],[7.58309,59.44445],[7.62563,59.46178],[7.59465,59.47881],[7.58462,59.50126],[7.54001,59.5223],[7.53628,59.52403]]]]}}]}