{
 "type": "FeatureCollection",
 "features": [
  {
   "type": "Feature",
   "geometry": {
    "type": "LineString",
    "coordinates": [
     [
      10.391122,
      59.290501
     ],
     [
      10.386044,
      59.292092
     ],
     [
      10.350523,
      59.293165
     ],
     [
      10.357694,
      59.290654
     ],
     [
      10.346682,
      59.293126
     ],
     [
      10.313688,
      59.283327
     ],
     [
      10.244019,
      59.211237
     ],
     [
      10.215917,
      59.197894
     ],
     [
      10.207452,
      59.189395
     ],
     [
      10.204532,
      59.169373
     ],
     [
      10.106487,
      59.107713
     ],
     [
      10.020571,
      59.05981
     ],
     [
      10.004794,
      59.056963
     ],
     [
      9.988166,
      59.065327
     ],
     [
      9.964998,
      59.063603
     ],
     [
      9.940715,
      59.064619
     ],
     [
      9.922391,
      59.070456
     ],
     [
      9.913669,
      59.067857
     ],
     [
      9.822241,
      59.081405
     ],
     [
      9.817744,
      59.087915
     ],
     [
      9.813086,
      59.088667
     ],
     [
      9.805774,
      59.092052
     ],
     [
      9.793265,
      59.092092
     ],
     [
      9.757792,
      59.106621
     ],
     [
      9.733426,
      59.110573
     ],
     [
      9.746813,
      59.106446
     ],
     [
      9.723574,
      59.116748
     ],
     [
      9.702509,
      59.115054
     ],
     [
      9.711453,
      59.120463
     ],
     [
      9.690276,
      59.101432
     ],
     [
      9.670832,
      59.098896
     ],
     [
      9.667031,
      59.096364
     ],
     [
      9.665807,
      59.079268
     ],
     [
      9.661637,
      59.070148
     ],
     [
      9.662972,
      59.076953
     ],
     [
      9.676237,
      59.048532
     ],
     [
      9.675673,
      59.035778
     ],
     [
      9.675002,
      59.037561
     ],
     [
      9.674797,
      59.03685
     ],
     [
      9.676412,
      59.034182
     ],
     [
      9.675554,
      59.024941
     ],
     [
      9.545697,
      58.982164
     ],
     [
      9.436201,
      58.958638
     ],
     [
      9.399784,
      58.945095
     ],
     [
      9.371988,
      58.943255
     ],
     [
      9.359247,
      58.938978
     ],
     [
      9.331119,
      58.93949
     ],
     [
      9.288325,
      58.900489
     ],
     [
      9.270648,
      58.891718
     ],
     [
      9.238718,
      58.890056
     ],
     [
      9.195088,
      58.878066
     ],
     [
      9.167627,
      58.876376
     ],
     [
      9.089735,
      58.834099
     ],
     [
      9.087775,
      58.836672
     ],
     [
      9.082837,
      58.844819
     ],
     [
      9.085197,
      58.849858
     ],
     [
      9.056841,
      58.860662
     ],
     [
      9.063656,
      58.855476
     ],
     [
      9.030187,
      58.869308
     ],
     [
      9.013245,
      58.872501
     ],
     [
      9.020211,
      58.870233
     ],
     [
      9.019376,
      58.878416
     ],
     [
      9.019296,
      58.883763
     ],
     [
      9.015215,
      58.886879
     ],
     [
      8.996638,
      58.893891
     ],
     [
      8.986737,
      58.893597
     ],
     [
      8.966407,
      58.89805
     ],
     [
      8.961218,
      58.912428
     ],
     [
      8.955276,
      58.916884
     ],
     [
      8.946757,
      58.919209
     ],
     [
      8.941297,
      58.923079
     ],
     [
      8.92594,
      58.921483
     ],
     [
      8.883625,
      58.929141
     ],
     [
      8.893284,
      58.93145
     ],
     [
      8.817231,
      58.933761
     ],
     [
      8.824978,
      58.937108
     ],
     [
      8.808392,
      58.932483
     ],
     [
      8.802378,
      58.932824
     ],
     [
      8.774261,
      58.924607
     ],
     [
      8.743182,
      58.903561
     ],
     [
      8.725613,
      58.89763
     ],
     [
      8.697769,
      58.894376
     ],
     [
      8.673287,
      58.881573
     ],
     [
      8.664097,
      58.87961
     ],
     [
      8.650088,
      58.877404
     ],
     [
      8.654722,
      58.879415
     ],
     [
      8.641328,
      58.875927
     ],
     [
      8.614449,
      58.874553
     ],
     [
      8.623594,
      58.876101
     ],
     [
      8.594715,
      58.882741
     ],
     [
      8.587458,
      58.883812
     ],
     [
      8.572593,
      58.887288
     ],
     [
      8.581072,
      58.882776
     ],
     [
      8.543382,
      58.913995
     ],
     [
      8.554839,
      58.909056
     ],
     [
      8.531844,
      58.928754
     ],
     [
      8.508465,
      58.939047
     ],
     [
      8.499572,
      58.942789
     ],
     [
      8.505449,
      58.944207
     ],
     [
      8.476009,
      58.952313
     ],
     [
      8.472673,
      58.955705
     ],
     [
      8.473599,
      58.960146
     ],
     [
      8.477028,
      58.958117
     ],
     [
      8.466487,
      58.959
     ],
     [
      8.457617,
      58.955925
     ],
     [
      8.45915,
      58.959064
     ],
     [
      8.449995,
      58.952745
     ],
     [
      8.442818,
      58.951862
     ],
     [
      8.42858,
      58.95428
     ],
     [
      8.420667,
      58.951323
     ],
     [
      8.408731,
      58.949746
     ],
     [
      8.413846,
      58.950973
     ],
     [
      8.407221,
      58.952246
     ],
     [
      8.395303,
      58.95153
     ],
     [
      8.399777,
      58.953408
     ],
     [
      8.39268,
      58.950061
     ],
     [
      8.364901,
      58.941885
     ],
     [
      8.392745,
      58.950215
     ],
     [
      8.392477,
      58.950279
     ],
     [
      8.384119,
      58.948659
     ],
     [
      8.380791,
      58.947882
     ],
     [
      8.372607,
      58.949577
     ],
     [
      8.362563,
      58.974521
     ],
     [
      8.367723,
      58.950363
     ],
     [
      8.376377,
      58.94845
     ],
     [
      8.385451,
      58.949033
     ],
     [
      8.392757,
      58.950161
     ],
     [
      8.392795,
      58.950157
     ],
     [
      8.406734,
      58.952357
     ],
     [
      8.39475,
      58.951315
     ],
     [
      8.401785,
      58.953643
     ],
     [
      8.412743,
      58.950046
     ],
     [
      8.419221,
      58.950925
     ],
     [
      8.426838,
      58.9539
     ],
     [
      8.442379,
      58.95193
     ],
     [
      8.450009,
      58.95277
     ],
     [
      8.45735,
      58.955597
     ],
     [
      8.460555,
      58.959371
     ],
     [
      8.469659,
      58.95887
     ],
     [
      8.475821,
      58.959701
     ],
     [
      8.473812,
      58.956077
     ],
     [
      8.475399,
      58.952894
     ],
     [
      8.495829,
      58.94315
     ],
     [
      8.502499,
      58.943582
     ],
     [
      8.50576,
      58.945876
     ],
     [
      8.507653,
      58.951894
     ],
     [
      8.517027,
      58.961114
     ],
     [
      8.515302,
      58.968232
     ],
     [
      8.521804,
      58.973347
     ],
     [
      8.524093,
      58.991398
     ],
     [
      8.539802,
      59.002198
     ],
     [
      8.534944,
      59.012889
     ],
     [
      8.540148,
      59.0082
     ],
     [
      8.519589,
      59.020765
     ],
     [
      8.520369,
      59.025483
     ],
     [
      8.502594,
      59.043316
     ],
     [
      8.510626,
      59.049228
     ],
     [
      8.509695,
      59.062311
     ],
     [
      8.538573,
      59.081086
     ],
     [
      8.526923,
      59.113248
     ],
     [
      8.509553,
      59.123799
     ],
     [
      8.519581,
      59.120074
     ],
     [
      8.506279,
      59.131739
     ],
     [
      8.51261,
      59.148179
     ],
     [
      8.500573,
      59.164084
     ],
     [
      8.512248,
      59.198099
     ],
     [
      8.513731,
      59.192132
     ],
     [
      8.505823,
      59.203206
     ],
     [
      8.495515,
      59.205127
     ],
     [
      8.493942,
      59.206843
     ],
     [
      8.499731,
      59.228596
     ],
     [
      8.525244,
      59.268742
     ],
     [
      8.527705,
      59.286198
     ],
     [
      8.533529,
      59.292559
     ],
     [
      8.529816,
      59.298013
     ],
     [
      8.518778,
      59.300674
     ],
     [
      8.516581,
      59.309817
     ],
     [
      8.492479,
      59.328052
     ],
     [
      8.493688,
      59.33351
     ],
     [
      8.505108,
      59.342382
     ],
     [
      8.506962,
      59.346382
     ],
     [
      8.511354,
      59.350109
     ],
     [
      8.515213,
      59.35098
     ],
     [
      8.519898,
      59.352904
     ],
     [
      8.523251,
      59.351771
     ],
     [
      8.522659,
      59.363409
     ],
     [
      8.533788,
      59.373933
     ],
     [
      8.477362,
      59.414569
     ],
     [
      8.473485,
      59.419585
     ],
     [
      8.475477,
      59.426256
     ],
     [
      8.479263,
      59.428432
     ],
     [
      8.483751,
      59.429047
     ],
     [
      8.48349,
      59.433455
     ],
     [
      8.486012,
      59.436447
     ],
     [
      8.467477,
      59.441734
     ],
     [
      8.474708,
      59.43637
     ],
     [
      8.442533,
      59.447422
     ],
     [
      8.43197,
      59.467438
     ],
     [
      8.411819,
      59.480449
     ],
     [
      8.366922,
      59.47781
     ],
     [
      8.351678,
      59.479999
     ],
     [
      8.311152,
      59.492766
     ],
     [
      8.267718,
      59.488296
     ],
     [
      8.206138,
      59.492912
     ],
     [
      8.145689,
      59.526448
     ],
     [
      8.070439,
      59.537167
     ],
     [
      8.056071,
      59.542307
     ],
     [
      8.043831,
      59.540842
     ],
     [
      8.015901,
      59.546124
     ],
     [
      7.993149,
      59.573534
     ],
     [
      7.99096,
      59.569363
     ],
     [
      7.997631,
      59.571281
     ],
     [
      7.991539,
      59.572439
     ],
     [
      7.992299,
      59.572489
     ],
     [
      7.992041,
      59.572439
     ],
     [
      7.992049,
      59.572453
     ],
     [
      8.000196,
      59.569156
     ],
     [
      7.992355,
      59.57254
     ],
     [
      7.997828,
      59.572277
     ],
     [
      7.993324,
      59.573731
     ],
     [
      7.995461,
      59.569319
     ],
     [
      7.995461,
      59.569319
     ],
     [
      7.990471,
      59.5737
     ],
     [
      7.993004,
      59.572274
     ],
     [
      7.990497,
      59.573691
     ],
     [
      7.993002,
      59.572341
     ],
     [
      7.990513,
      59.573685
     ],
     [
      7.990508,
      59.573686
     ],
     [
      7.992889,
      59.572297
     ],
     [
      7.99291,
      59.572317
     ],
     [
      7.992308,
      59.572534
     ],
     [
      7.990464,
      59.573701
     ],
     [
      7.990687,
      59.57374
     ],
     [
      7.992292,
      59.57257
     ],
     [
      7.992877,
      59.57213
     ],
     [
      7.990578,
      59.572713
     ],
     [
      7.992333,
      59.572555
     ],
     [
      7.997824,
      59.572283
     ],
     [
      7.992085,
      59.572389
     ],
     [
      7.992082,
      59.572393
     ],
     [
      7.992089,
      59.572391
     ],
     [
      7.992108,
      59.572398
     ]
    ]
   },
   "properties": {
    "kind": "track",
    "date": "2026-07-20",
    "points": 242,
    "first_fix": "2026-07-20T13:02:00.000+02:00",
    "last_fix": "2026-07-20T23:57:00.000+02:00",
    "distance_km": 241.3,
    "track_length_km": 311.5,
    "modes": [
     "IN_PASSENGER_VEHICLE",
     "WALKING"
    ],
    "title": "Tønsberg – Jettegrytene – Vinje",
    "municipalities": [
     "Tønsberg",
     "Sandefjord",
     "Larvik",
     "Porsgrunn",
     "Bamble",
     "Kragerø",
     "Gjerstad",
     "Åmli",
     "Nissedal",
     "Kviteseid",
     "Tokke",
     "Vinje"
    ]
   }
  },
  {
   "type": "Feature",
   "geometry": {
    "type": "LineString",
    "coordinates": [
     [
      7.992104,
      59.572333
     ],
     [
      7.992326,
      59.572502
     ],
     [
      7.992921,
      59.57229
     ],
     [
      7.992895,
      59.572279
     ],
     [
      7.992933,
      59.572295
     ],
     [
      7.993124,
      59.572262
     ],
     [
      7.993031,
      59.572196
     ],
     [
      7.992916,
      59.572297
     ],
     [
      7.992999,
      59.572149
     ],
     [
      7.992956,
      59.572288
     ],
     [
      7.992907,
      59.572321
     ],
     [
      7.992914,
      59.572305
     ],
     [
      7.992388,
      59.572556
     ],
     [
      7.988686,
      59.569121
     ],
     [
      7.991599,
      59.568092
     ],
     [
      7.990507,
      59.569277
     ],
     [
      8.001403,
      59.560635
     ],
     [
      7.977378,
      59.555101
     ],
     [
      7.971817,
      59.552113
     ],
     [
      7.972223,
      59.548629
     ],
     [
      7.97341,
      59.543343
     ],
     [
      7.992265,
      59.536608
     ],
     [
      7.993272,
      59.532841
     ],
     [
      7.999266,
      59.528658
     ],
     [
      7.996639,
      59.524249
     ],
     [
      7.97966,
      59.521476
     ],
     [
      7.981867,
      59.517291
     ],
     [
      7.962296,
      59.49273
     ],
     [
      7.970773,
      59.496102
     ],
     [
      7.952031,
      59.483476
     ],
     [
      7.952185,
      59.474136
     ],
     [
      7.946778,
      59.470535
     ],
     [
      7.940266,
      59.460976
     ],
     [
      7.949278,
      59.450157
     ],
     [
      7.965589,
      59.448153
     ],
     [
      7.973611,
      59.444771
     ],
     [
      7.988115,
      59.4433
     ],
     [
      8.001657,
      59.436765
     ],
     [
      8.001365,
      59.434171
     ],
     [
      7.99807,
      59.432541
     ],
     [
      8.003203,
      59.429841
     ],
     [
      7.979399,
      59.423719
     ],
     [
      7.965246,
      59.413744
     ],
     [
      7.882165,
      59.371036
     ],
     [
      7.888426,
      59.377482
     ],
     [
      7.869379,
      59.369129
     ],
     [
      7.878138,
      59.369273
     ],
     [
      7.845776,
      59.375015
     ],
     [
      7.803561,
      59.378703
     ],
     [
      7.782044,
      59.364844
     ],
     [
      7.715487,
      59.344658
     ],
     [
      7.640964,
      59.348258
     ],
     [
      7.600805,
      59.341839
     ],
     [
      7.615299,
      59.341625
     ],
     [
      7.587071,
      59.344747
     ],
     [
      7.519081,
      59.346064
     ],
     [
      7.502694,
      59.335932
     ],
     [
      7.511946,
      59.339975
     ],
     [
      7.498087,
      59.329516
     ],
     [
      7.488877,
      59.31634
     ],
     [
      7.497692,
      59.321453
     ],
     [
      7.483612,
      59.309024
     ],
     [
      7.497385,
      59.280879
     ],
     [
      7.486526,
      59.274767
     ],
     [
      7.489267,
      59.278865
     ],
     [
      7.492916,
      59.271023
     ],
     [
      7.490752,
      59.265973
     ],
     [
      7.499054,
      59.263749
     ],
     [
      7.499453,
      59.25958
     ],
     [
      7.490581,
      59.25313
     ],
     [
      7.492181,
      59.249809
     ],
     [
      7.47693,
      59.24191
     ],
     [
      7.479404,
      59.239794
     ],
     [
      7.482963,
      59.238362
     ],
     [
      7.489532,
      59.232397
     ],
     [
      7.519989,
      59.232156
     ],
     [
      7.533891,
      59.229457
     ],
     [
      7.531826,
      59.212852
     ],
     [
      7.542559,
      59.21419
     ],
     [
      7.528934,
      59.206422
     ],
     [
      7.523761,
      59.19225
     ],
     [
      7.530329,
      59.19938
     ],
     [
      7.523873,
      59.184389
     ],
     [
      7.5387,
      59.140354
     ],
     [
      7.511772,
      59.12823
     ],
     [
      7.51296,
      59.120534
     ],
     [
      7.503966,
      59.105871
     ],
     [
      7.472041,
      59.101489
     ],
     [
      7.461824,
      59.098245
     ],
     [
      7.473576,
      59.102042
     ],
     [
      7.48296,
      59.102798
     ],
     [
      7.487726,
      59.105484
     ],
     [
      7.482925,
      59.10281
     ],
     [
      7.464285,
      59.096376
     ],
     [
      7.488368,
      59.105808
     ],
     [
      7.482222,
      59.101914
     ],
     [
      7.476332,
      59.101409
     ],
     [
      7.480016,
      59.101727
     ],
     [
      7.488368,
      59.105808
     ],
     [
      7.482975,
      59.101866
     ],
     [
      7.487726,
      59.105484
     ],
     [
      7.483011,
      59.102796
     ],
     [
      7.482949,
      59.102783
     ],
     [
      7.50392,
      59.104929
     ],
     [
      7.50406,
      59.109929
     ],
     [
      7.506983,
      59.110981
     ],
     [
      7.512353,
      59.129864
     ],
     [
      7.536273,
      59.137224
     ],
     [
      7.539525,
      59.143551
     ],
     [
      7.523675,
      59.192035
     ],
     [
      7.531093,
      59.199243
     ],
     [
      7.531053,
      59.211562
     ],
     [
      7.528622,
      59.231395
     ],
     [
      7.53785,
      59.225144
     ],
     [
      7.497204,
      59.232405
     ],
     [
      7.475066,
      59.240814
     ],
     [
      7.47837,
      59.243612
     ],
     [
      7.488033,
      59.247236
     ],
     [
      7.499481,
      59.263005
     ],
     [
      7.490539,
      59.266198
     ],
     [
      7.485543,
      59.275368
     ],
     [
      7.492887,
      59.272228
     ],
     [
      7.498823,
      59.283629
     ],
     [
      7.483416,
      59.306288
     ],
     [
      7.485727,
      59.314109
     ],
     [
      7.4961,
      59.319787
     ],
     [
      7.498874,
      59.334232
     ],
     [
      7.510498,
      59.337312
     ],
     [
      7.515949,
      59.343695
     ],
     [
      7.543779,
      59.347997
     ],
     [
      7.613842,
      59.34114
     ],
     [
      7.637631,
      59.348237
     ],
     [
      7.715271,
      59.344624
     ],
     [
      7.781688,
      59.364707
     ],
     [
      7.79729,
      59.375726
     ],
     [
      7.806367,
      59.379076
     ],
     [
      7.819108,
      59.378573
     ],
     [
      7.873379,
      59.36773
     ],
     [
      7.884307,
      59.371924
     ],
     [
      7.888765,
      59.377785
     ],
     [
      7.918574,
      59.389342
     ],
     [
      7.993385,
      59.427708
     ],
     [
      8.002922,
      59.429187
     ],
     [
      8.006064,
      59.421906
     ],
     [
      8.016655,
      59.41786
     ],
     [
      8.025351,
      59.404139
     ],
     [
      8.023114,
      59.398164
     ],
     [
      8.032809,
      59.390107
     ],
     [
      8.044548,
      59.390781
     ],
     [
      8.049062,
      59.387734
     ],
     [
      8.046115,
      59.385125
     ],
     [
      8.038878,
      59.382305
     ],
     [
      8.039206,
      59.379744
     ],
     [
      8.040752,
      59.374707
     ],
     [
      8.05318,
      59.372445
     ],
     [
      8.063129,
      59.373338
     ],
     [
      8.127335,
      59.366042
     ],
     [
      8.131244,
      59.367947
     ],
     [
      8.145466,
      59.366302
     ],
     [
      8.163237,
      59.361815
     ],
     [
      8.170819,
      59.363414
     ],
     [
      8.206468,
      59.35466
     ],
     [
      8.217157,
      59.35613
     ],
     [
      8.264851,
      59.35178
     ],
     [
      8.269614,
      59.354568
     ],
     [
      8.292618,
      59.354987
     ],
     [
      8.372571,
      59.329501
     ],
     [
      8.390341,
      59.332328
     ],
     [
      8.396561,
      59.329798
     ],
     [
      8.446622,
      59.322835
     ],
     [
      8.459345,
      59.323373
     ],
     [
      8.46851,
      59.320942
     ],
     [
      8.483536,
      59.325623
     ],
     [
      8.491141,
      59.326382
     ],
     [
      8.492185,
      59.328374
     ],
     [
      8.492712,
      59.328272
     ],
     [
      8.490598,
      59.329744
     ],
     [
      8.505198,
      59.341556
     ],
     [
      8.506767,
      59.348145
     ],
     [
      8.510401,
      59.351215
     ],
     [
      8.513331,
      59.348727
     ],
     [
      8.519738,
      59.351658
     ],
     [
      8.52151,
      59.353955
     ],
     [
      8.522575,
      59.356425
     ],
     [
      8.519899,
      59.361716
     ],
     [
      8.534532,
      59.372873
     ],
     [
      8.494351,
      59.401642
     ],
     [
      8.489659,
      59.401667
     ],
     [
      8.491473,
      59.401931
     ],
     [
      8.495833,
      59.400643
     ],
     [
      8.495041,
      59.403569
     ],
     [
      8.47744,
      59.414472
     ],
     [
      8.473401,
      59.419806
     ],
     [
      8.477846,
      59.427771
     ],
     [
      8.483137,
      59.431169
     ],
     [
      8.483518,
      59.435585
     ],
     [
      8.488562,
      59.438201
     ],
     [
      8.560246,
      59.453603
     ],
     [
      8.560725,
      59.446266
     ],
     [
      8.592498,
      59.470329
     ],
     [
      8.632267,
      59.477217
     ],
     [
      8.660556,
      59.472899
     ],
     [
      8.672087,
      59.460606
     ],
     [
      8.685612,
      59.457909
     ],
     [
      8.699686,
      59.452034
     ],
     [
      8.716307,
      59.449365
     ],
     [
      8.729889,
      59.454923
     ],
     [
      8.726409,
      59.442963
     ],
     [
      8.739432,
      59.431897
     ],
     [
      8.74035,
      59.4312
     ],
     [
      8.74284,
      59.430999
     ],
     [
      8.742886,
      59.431012
     ],
     [
      8.742921,
      59.431024
     ],
     [
      8.7428,
      59.431046
     ],
     [
      8.742121,
      59.431255
     ],
     [
      8.74226,
      59.430949
     ],
     [
      8.74279,
      59.431002
     ],
     [
      8.742876,
      59.431077
     ],
     [
      8.742972,
      59.431052
     ],
     [
      8.742156,
      59.431297
     ],
     [
      8.742859,
      59.431037
     ],
     [
      8.742506,
      59.431029
     ],
     [
      8.742963,
      59.431075
     ],
     [
      8.742247,
      59.431196
     ],
     [
      8.742931,
      59.431044
     ],
     [
      8.742931,
      59.431044
     ],
     [
      8.740349,
      59.431196
     ],
     [
      8.740646,
      59.431192
     ],
     [
      8.74283,
      59.431054
     ],
     [
      8.742998,
      59.431045
     ],
     [
      8.742883,
      59.431028
     ],
     [
      8.742358,
      59.431234
     ],
     [
      8.742333,
      59.43124
     ],
     [
      8.742197,
      59.43118
     ],
     [
      8.742722,
      59.431031
     ],
     [
      8.742915,
      59.43102
     ],
     [
      8.742737,
      59.431027
     ],
     [
      8.742344,
      59.431013
     ],
     [
      8.74222,
      59.431237
     ],
     [
      8.741456,
      59.43149
     ],
     [
      8.74204,
      59.431337
     ],
     [
      8.741532,
      59.431404
     ],
     [
      8.742235,
      59.431264
     ],
     [
      8.742062,
      59.431304
     ],
     [
      8.742166,
      59.431284
     ],
     [
      8.74228,
      59.43125
     ],
     [
      8.742268,
      59.431244
     ],
     [
      8.742271,
      59.431256
     ],
     [
      8.742877,
      59.431967
     ],
     [
      8.740686,
      59.431327
     ],
     [
      8.741632,
      59.431539
     ],
     [
      8.740342,
      59.431202
     ],
     [
      8.740331,
      59.431202
     ],
     [
      8.740231,
      59.431208
     ],
     [
      8.740215,
      59.431201
     ],
     [
      8.742233,
      59.431175
     ],
     [
      8.742715,
      59.431112
     ],
     [
      8.742955,
      59.431037
     ],
     [
      8.742885,
      59.43104
     ],
     [
      8.742672,
      59.431084
     ],
     [
      8.741773,
      59.431222
     ],
     [
      8.742334,
      59.431195
     ]
    ]
   },
   "properties": {
    "kind": "track",
    "date": "2026-07-21",
    "points": 262,
    "first_fix": "2026-07-21T00:04:00.000+02:00",
    "last_fix": "2026-07-21T23:59:00.000+02:00",
    "distance_km": 228.8,
    "track_length_km": 249.7,
    "modes": [
     "IN_PASSENGER_VEHICLE"
    ],
    "title": "Dagstur til Setesdal",
    "municipalities": [
     "Vinje",
     "Tokke",
     "Bykle",
     "Valle",
     "Kviteseid",
     "Seljord"
    ]
   }
  },
  {
   "type": "Feature",
   "geometry": {
    "type": "LineString",
    "coordinates": [
     [
      8.74289,
      59.431044
     ],
     [
      8.742285,
      59.431221
     ],
     [
      8.74213,
      59.43121
     ],
     [
      8.742868,
      59.431047
     ],
     [
      8.742354,
      59.431196
     ],
     [
      8.742199,
      59.431198
     ],
     [
      8.742076,
      59.431283
     ],
     [
      8.742241,
      59.431146
     ],
     [
      8.742281,
      59.431208
     ],
     [
      8.742263,
      59.431201
     ],
     [
      8.742264,
      59.431209
     ],
     [
      8.74214,
      59.431261
     ],
     [
      8.742292,
      59.431197
     ],
     [
      8.742147,
      59.431264
     ],
     [
      8.742323,
      59.431265
     ],
     [
      8.742223,
      59.431166
     ],
     [
      8.742407,
      59.431198
     ],
     [
      8.74227,
      59.431247
     ],
     [
      8.739024,
      59.432975
     ],
     [
      8.743008,
      59.431055
     ],
     [
      8.741272,
      59.431537
     ],
     [
      8.758571,
      59.424493
     ],
     [
      8.787837,
      59.424442
     ],
     [
      8.806827,
      59.427834
     ],
     [
      8.825831,
      59.425161
     ],
     [
      8.846276,
      59.434556
     ],
     [
      8.866023,
      59.432804
     ],
     [
      8.874996,
      59.42927
     ],
     [
      8.879985,
      59.423528
     ],
     [
      8.898419,
      59.416645
     ],
     [
      8.907543,
      59.416511
     ],
     [
      8.918389,
      59.411216
     ],
     [
      8.964705,
      59.407277
     ],
     [
      9.041572,
      59.416135
     ],
     [
      9.067983,
      59.413141
     ],
     [
      9.071505,
      59.417383
     ],
     [
      9.073363,
      59.446158
     ],
     [
      9.073541,
      59.446453
     ],
     [
      9.07278,
      59.444563
     ],
     [
      9.07093,
      59.448982
     ],
     [
      9.074658,
      59.449069
     ],
     [
      9.073145,
      59.444396
     ],
     [
      9.073539,
      59.446451
     ],
     [
      9.073209,
      59.445191
     ],
     [
      9.071908,
      59.435122
     ],
     [
      9.074231,
      59.42932
     ],
     [
      9.069497,
      59.414978
     ],
     [
      9.072928,
      59.418406
     ],
     [
      9.069572,
      59.411029
     ],
     [
      9.069319,
      59.412544
     ],
     [
      9.072814,
      59.411377
     ],
     [
      9.097435,
      59.408523
     ],
     [
      9.1101,
      59.410518
     ],
     [
      9.109165,
      59.411244
     ],
     [
      9.109398,
      59.411177
     ],
     [
      9.10933,
      59.411344
     ],
     [
      9.109364,
      59.411171
     ],
     [
      9.10911,
      59.411248
     ],
     [
      9.109291,
      59.411179
     ],
     [
      9.109344,
      59.411233
     ],
     [
      9.109258,
      59.411249
     ],
     [
      9.109327,
      59.411272
     ],
     [
      9.109215,
      59.411218
     ],
     [
      9.109103,
      59.411261
     ],
     [
      9.109387,
      59.411056
     ],
     [
      9.109178,
      59.41087
     ],
     [
      9.109331,
      59.411258
     ],
     [
      9.109341,
      59.410816
     ],
     [
      9.109307,
      59.410803
     ],
     [
      9.10936,
      59.410812
     ],
     [
      9.109357,
      59.410798
     ],
     [
      9.110067,
      59.411123
     ],
     [
      9.109159,
      59.411257
     ],
     [
      9.109233,
      59.411151
     ],
     [
      9.109289,
      59.41127
     ],
     [
      9.109183,
      59.411163
     ],
     [
      9.109267,
      59.411296
     ],
     [
      9.10931,
      59.411339
     ],
     [
      9.10974,
      59.411278
     ],
     [
      9.10934,
      59.411247
     ],
     [
      9.109088,
      59.411461
     ],
     [
      9.109293,
      59.411235
     ],
     [
      9.109576,
      59.411113
     ],
     [
      9.109421,
      59.411186
     ],
     [
      9.109295,
      59.411141
     ],
     [
      9.109232,
      59.411266
     ],
     [
      9.10908,
      59.411238
     ],
     [
      9.109163,
      59.411229
     ],
     [
      9.109296,
      59.411202
     ],
     [
      9.109102,
      59.411301
     ],
     [
      9.109422,
      59.411124
     ],
     [
      9.109301,
      59.411315
     ],
     [
      9.109295,
      59.411105
     ],
     [
      9.109257,
      59.41131
     ],
     [
      9.109144,
      59.411257
     ],
     [
      9.109108,
      59.411263
     ],
     [
      9.109228,
      59.411223
     ],
     [
      9.10908,
      59.411257
     ],
     [
      9.109279,
      59.411235
     ],
     [
      9.109172,
      59.411263
     ],
     [
      9.109274,
      59.411311
     ],
     [
      9.109166,
      59.411203
     ],
     [
      9.109303,
      59.411223
     ],
     [
      9.109217,
      59.411207
     ],
     [
      9.109317,
      59.411247
     ],
     [
      9.109314,
      59.411276
     ]
    ]
   },
   "properties": {
    "kind": "track",
    "date": "2026-07-22",
    "points": 106,
    "first_fix": "2026-07-22T00:01:00.000+02:00",
    "last_fix": "2026-07-22T23:59:00.000+02:00",
    "distance_km": 31.1,
    "track_length_km": 35.2,
    "modes": [
     "IN_PASSENGER_VEHICLE"
    ],
    "title": "Seljord – Bø Sommarland",
    "municipalities": [
     "Seljord",
     "Midt-Telemark"
    ]
   }
  },
  {
   "type": "Feature",
   "geometry": {
    "type": "LineString",
    "coordinates": [
     [
      9.109343,
      59.411221
     ],
     [
      9.109292,
      59.411174
     ],
     [
      9.109338,
      59.411341
     ],
     [
      9.109367,
      59.411216
     ],
     [
      9.109338,
      59.411319
     ],
     [
      9.10934,
      59.4113
     ],
     [
      9.110559,
      59.411229
     ],
     [
      9.116713,
      59.412242
     ],
     [
      9.138801,
      59.400398
     ],
     [
      9.162203,
      59.391776
     ],
     [
      9.167025,
      59.387927
     ],
     [
      9.181451,
      59.389247
     ],
     [
      9.202971,
      59.38388
     ],
     [
      9.213119,
      59.389081
     ],
     [
      9.235221,
      59.395614
     ],
     [
      9.246412,
      59.396435
     ],
     [
      9.25977,
      59.393819
     ],
     [
      9.265049,
      59.388149
     ],
     [
      9.263211,
      59.388132
     ],
     [
      9.262532,
      59.389034
     ],
     [
      9.263423,
      59.387986
     ],
     [
      9.26129,
      59.39254
     ],
     [
      9.241317,
      59.397237
     ],
     [
      9.196198,
      59.385225
     ],
     [
      9.208784,
      59.386037
     ],
     [
      9.185382,
      59.388752
     ],
     [
      9.170138,
      59.38752
     ],
     [
      9.165095,
      59.388685
     ],
     [
      9.158878,
      59.393332
     ],
     [
      9.122176,
      59.411536
     ],
     [
      9.096868,
      59.408641
     ],
     [
      9.076799,
      59.410951
     ],
     [
      9.072648,
      59.410691
     ],
     [
      9.071189,
      59.410829
     ],
     [
      9.099631,
      59.40844
     ],
     [
      9.116606,
      59.412168
     ],
     [
      9.168691,
      59.387684
     ],
     [
      9.183737,
      59.389094
     ],
     [
      9.190226,
      59.387168
     ],
     [
      9.200174,
      59.38403
     ],
     [
      9.243378,
      59.397472
     ],
     [
      9.259936,
      59.393774
     ],
     [
      9.263729,
      59.389234
     ],
     [
      9.263747,
      59.388034
     ],
     [
      9.263031,
      59.387546
     ],
     [
      9.263084,
      59.387565
     ],
     [
      9.26299,
      59.387503
     ],
     [
      9.262608,
      59.387969
     ],
     [
      9.262694,
      59.387727
     ],
     [
      9.262726,
      59.387878
     ],
     [
      9.26292,
      59.387712
     ],
     [
      9.262579,
      59.387787
     ],
     [
      9.262602,
      59.387851
     ],
     [
      9.262551,
      59.387808
     ],
     [
      9.26253,
      59.387793
     ],
     [
      9.262777,
      59.387986
     ],
     [
      9.262488,
      59.387797
     ],
     [
      9.262745,
      59.387737
     ],
     [
      9.262578,
      59.387829
     ],
     [
      9.262591,
      59.387851
     ],
     [
      9.262774,
      59.387779
     ],
     [
      9.262512,
      59.387864
     ],
     [
      9.262581,
      59.387794
     ],
     [
      9.26269,
      59.38782
     ],
     [
      9.262687,
      59.387747
     ],
     [
      9.262715,
      59.387796
     ],
     [
      9.262594,
      59.387788
     ],
     [
      9.2627,
      59.387938
     ],
     [
      9.262539,
      59.387799
     ],
     [
      9.262763,
      59.387846
     ],
     [
      9.262737,
      59.387827
     ],
     [
      9.262793,
      59.387741
     ],
     [
      9.262555,
      59.387788
     ],
     [
      9.262803,
      59.387792
     ],
     [
      9.262746,
      59.387848
     ],
     [
      9.262625,
      59.387785
     ],
     [
      9.262791,
      59.387683
     ],
     [
      9.262803,
      59.387747
     ],
     [
      9.262316,
      59.387784
     ],
     [
      9.262749,
      59.387724
     ],
     [
      9.262589,
      59.387789
     ],
     [
      9.262765,
      59.387759
     ],
     [
      9.262828,
      59.387794
     ],
     [
      9.262719,
      59.387768
     ],
     [
      9.262776,
      59.387769
     ],
     [
      9.262573,
      59.387747
     ],
     [
      9.262576,
      59.387725
     ],
     [
      9.262823,
      59.387773
     ],
     [
      9.26255,
      59.387757
     ],
     [
      9.262701,
      59.387872
     ],
     [
      9.262445,
      59.387784
     ],
     [
      9.262962,
      59.387875
     ],
     [
      9.26296,
      59.387863
     ],
     [
      9.262583,
      59.387781
     ],
     [
      9.262589,
      59.387775
     ],
     [
      9.263667,
      59.38744
     ],
     [
      9.26362,
      59.38743
     ]
    ]
   },
   "properties": {
    "kind": "track",
    "date": "2026-07-23",
    "points": 97,
    "first_fix": "2026-07-23T00:01:00.000+02:00",
    "last_fix": "2026-07-23T23:57:00.000+02:00",
    "distance_km": 37.2,
    "track_length_km": 39.8,
    "modes": [
     "IN_PASSENGER_VEHICLE"
    ],
    "title": "Norsjø Kabelpark",
    "municipalities": [
     "Midt-Telemark"
    ]
   }
  },
  {
   "type": "Feature",
   "geometry": {
    "type": "LineString",
    "coordinates": [
     [
      9.262545,
      59.387787
     ],
     [
      9.262692,
      59.387789
     ],
     [
      9.262836,
      59.387908
     ],
     [
      9.262851,
      59.387886
     ],
     [
      9.262571,
      59.387944
     ],
     [
      9.262819,
      59.387935
     ],
     [
      9.262605,
      59.387839
     ],
     [
      9.262606,
      59.387814
     ],
     [
      9.262882,
      59.388037
     ],
     [
      9.262739,
      59.387743
     ],
     [
      9.262563,
      59.387983
     ],
     [
      9.262636,
      59.387834
     ],
     [
      9.262744,
      59.387992
     ],
     [
      9.262684,
      59.387763
     ],
     [
      9.26261,
      59.387819
     ],
     [
      9.262599,
      59.387817
     ],
     [
      9.262641,
      59.387787
     ],
     [
      9.262732,
      59.387899
     ],
     [
      9.262559,
      59.387828
     ],
     [
      9.262801,
      59.388004
     ],
     [
      9.262852,
      59.388063
     ],
     [
      9.262802,
      59.388
     ],
     [
      9.262615,
      59.387788
     ],
     [
      9.262629,
      59.387803
     ],
     [
      9.262633,
      59.387823
     ],
     [
      9.262648,
      59.387765
     ],
     [
      9.262741,
      59.387827
     ],
     [
      9.262664,
      59.387629
     ],
     [
      9.262809,
      59.38769
     ],
     [
      9.260166,
      59.39378
     ],
     [
      9.242816,
      59.397438
     ],
     [
      9.21424,
      59.389824
     ],
     [
      9.205358,
      59.384156
     ],
     [
      9.181823,
      59.389267
     ],
     [
      9.1659,
      59.388071
     ],
     [
      9.170005,
      59.387535
     ],
     [
      9.165464,
      59.385126
     ],
     [
      9.175498,
      59.376617
     ],
     [
      9.177009,
      59.370346
     ],
     [
      9.194712,
      59.353411
     ],
     [
      9.205219,
      59.348346
     ],
     [
      9.216918,
      59.33424
     ],
     [
      9.242711,
      59.315638
     ],
     [
      9.243083,
      59.308055
     ],
     [
      9.252517,
      59.301292
     ],
     [
      9.251478,
      59.294238
     ],
     [
      9.257056,
      59.288317
     ],
     [
      9.270068,
      59.283597
     ],
     [
      9.266667,
      59.285162
     ],
     [
      9.259581,
      59.289322
     ],
     [
      9.268407,
      59.284911
     ],
     [
      9.263045,
      59.283987
     ],
     [
      9.267034,
      59.285214
     ],
     [
      9.266843,
      59.285223
     ],
     [
      9.26702,
      59.283096
     ],
     [
      9.27128,
      59.282616
     ],
     [
      9.28237,
      59.271387
     ],
     [
      9.292082,
      59.269175
     ],
     [
      9.304154,
      59.270364
     ],
     [
      9.350667,
      59.259866
     ],
     [
      9.358462,
      59.256059
     ],
     [
      9.375209,
      59.237427
     ],
     [
      9.394281,
      59.227469
     ],
     [
      9.407532,
      59.214486
     ],
     [
      9.430044,
      59.20696
     ],
     [
      9.437756,
      59.195378
     ],
     [
      9.448175,
      59.192043
     ],
     [
      9.45904,
      59.192456
     ],
     [
      9.467432,
      59.188614
     ],
     [
      9.519501,
      59.183747
     ],
     [
      9.548322,
      59.175614
     ],
     [
      9.571565,
      59.173697
     ],
     [
      9.578879,
      59.174788
     ],
     [
      9.588142,
      59.172591
     ],
     [
      9.59407,
      59.172667
     ],
     [
      9.596997,
      59.17662
     ],
     [
      9.604136,
      59.176735
     ],
     [
      9.609051,
      59.174628
     ],
     [
      9.614303,
      59.173647
     ],
     [
      9.635207,
      59.174241
     ],
     [
      9.642471,
      59.172936
     ],
     [
      9.661482,
      59.150947
     ],
     [
      9.659942,
      59.140359
     ],
     [
      9.687639,
      59.129143
     ],
     [
      9.721122,
      59.118889
     ],
     [
      9.724814,
      59.115085
     ],
     [
      9.747316,
      59.106204
     ],
     [
      9.758164,
      59.106673
     ],
     [
      9.798286,
      59.09102
     ],
     [
      9.807549,
      59.091148
     ],
     [
      9.816136,
      59.087567
     ],
     [
      9.826846,
      59.087022
     ],
     [
      9.843928,
      59.08098
     ],
     [
      9.969328,
      59.064096
     ],
     [
      9.988896,
      59.065004
     ],
     [
      10.00913,
      59.056429
     ],
     [
      10.125791,
      59.116709
     ],
     [
      10.204602,
      59.168903
     ],
     [
      10.207433,
      59.176403
     ],
     [
      10.211559,
      59.172286
     ],
     [
      10.209101,
      59.175414
     ],
     [
      10.208101,
      59.172307
     ],
     [
      10.208122,
      59.174117
     ],
     [
      10.208652,
      59.173852
     ],
     [
      10.208885,
      59.193247
     ],
     [
      10.238068,
      59.20803
     ],
     [
      10.242623,
      59.207443
     ],
     [
      10.241694,
      59.207823
     ],
     [
      10.247562,
      59.220926
     ],
     [
      10.301616,
      59.265821
     ],
     [
      10.306205,
      59.27662
     ],
     [
      10.318439,
      59.285043
     ],
     [
      10.333554,
      59.287504
     ],
     [
      10.337882,
      59.285183
     ],
     [
      10.407391,
      59.282408
     ],
     [
      10.416257,
      59.283884
     ],
     [
      10.428338,
      59.281254
     ],
     [
      10.433336,
      59.275388
     ]
    ]
   },
   "properties": {
    "kind": "track",
    "date": "2026-07-24",
    "points": 118,
    "first_fix": "2026-07-24T00:00:00.000+02:00",
    "last_fix": "2026-07-24T15:14:00.000+02:00",
    "distance_km": 122.0,
    "track_length_km": 118.5,
    "modes": [
     "IN_PASSENGER_VEHICLE",
     "CYCLING"
    ],
    "title": "Hjemover over Ulefoss og Skien",
    "municipalities": [
     "Midt-Telemark",
     "Nome",
     "Skien",
     "Porsgrunn",
     "Larvik",
     "Sandefjord",
     "Tønsberg"
    ]
   }
  },
  {
   "type": "Feature",
   "geometry": {
    "type": "Point",
    "coordinates": [
     9.675144,
     59.037048
    ]
   },
   "properties": {
    "kind": "stop",
    "label": "St1 Lasses, Stathelle",
    "municipality": "Bamble",
    "name_verified": true,
    "date": "2026-07-20",
    "start": "2026-07-20T14:02:41.000+02:00",
    "end": "2026-07-20T15:09:05.000+02:00",
    "duration_min": 66,
    "place_id": "ChIJUSVouJbhRkYR4EJyH7Z9Zf8"
   }
  },
  {
   "type": "Feature",
   "geometry": {
    "type": "Point",
    "coordinates": [
     8.39528,
     58.95158
    ]
   },
   "properties": {
    "kind": "stop",
    "label": "Jettegrytene – parkering/adkomst",
    "municipality": "Nissedal",
    "name_verified": false,
    "date": "2026-07-20",
    "start": "2026-07-20T17:02:00.000+02:00",
    "end": "2026-07-20T17:34:05.000+02:00",
    "duration_min": 32,
    "place_id": "ChIJP8nqTK-DOEYR6cXn4F-4lXk"
   }
  },
  {
   "type": "Feature",
   "geometry": {
    "type": "Point",
    "coordinates": [
     8.3696,
     58.950358
    ]
   },
   "properties": {
    "kind": "stop",
    "label": "Jettegrytene, Reinfoss",
    "municipality": "Nissedal",
    "name_verified": true,
    "date": "2026-07-20",
    "start": "2026-07-20T18:01:40.000+02:00",
    "end": "2026-07-20T19:15:46.000+02:00",
    "duration_min": 74,
    "place_id": "ChIJA2zxi7eDOEYRR6j9einN1Bs"
   }
  },
  {
   "type": "Feature",
   "geometry": {
    "type": "Point",
    "coordinates": [
     7.991969,
     59.57249
    ]
   },
   "properties": {
    "kind": "stop",
    "label": "Groven Camping og Hyttegrend, Åmot",
    "municipality": "Vinje",
    "name_verified": true,
    "date": "2026-07-20",
    "start": "2026-07-20T21:46:24.000+02:00",
    "end": "2026-07-21T12:10:57.000+02:00",
    "duration_min": 865,
    "place_id": "ChIJdWWvCRXLOEYRMC7AQ849YsQ"
   }
  },
  {
   "type": "Feature",
   "geometry": {
    "type": "Point",
    "coordinates": [
     7.991012,
     59.568183
    ]
   },
   "properties": {
    "kind": "stop",
    "label": "Fristadsenteret, Åmot",
    "municipality": "Vinje",
    "name_verified": true,
    "date": "2026-07-21",
    "start": "2026-07-21T12:16:33.000+02:00",
    "end": "2026-07-21T12:50:27.000+02:00",
    "duration_min": 34,
    "place_id": "ChIJZzluuRTLOEYR8SpEVKVMF4E"
   }
  },
  {
   "type": "Feature",
   "geometry": {
    "type": "Point",
    "coordinates": [
     7.990499,
     59.568157
    ]
   },
   "properties": {
    "kind": "stop",
    "label": "Fristadsenteret (butikk), Åmot",
    "municipality": "Vinje",
    "name_verified": false,
    "date": "2026-07-21",
    "start": "2026-07-21T12:22:21.000+02:00",
    "end": "2026-07-21T12:31:09.000+02:00",
    "duration_min": 9,
    "place_id": "ChIJOwhbghPLOEYRPgYSIr3wVtA"
   }
  },
  {
   "type": "Feature",
   "geometry": {
    "type": "Point",
    "coordinates": [
     7.990943,
     59.567999
    ]
   },
   "properties": {
    "kind": "stop",
    "label": "Fristadsenteret (butikk), Åmot",
    "municipality": "Vinje",
    "name_verified": false,
    "date": "2026-07-21",
    "start": "2026-07-21T12:33:15.000+02:00",
    "end": "2026-07-21T12:48:45.000+02:00",
    "duration_min": 16,
    "place_id": "ChIJeRoAhKbLOEYRhtByq2wbuwA"
   }
  },
  {
   "type": "Feature",
   "geometry": {
    "type": "Point",
    "coordinates": [
     7.482814,
     59.101742
    ]
   },
   "properties": {
    "kind": "stop",
    "label": "Kulpane, Nomeland",
    "municipality": "Valle",
    "name_verified": true,
    "date": "2026-07-21",
    "start": "2026-07-21T14:45:27.000+02:00",
    "end": "2026-07-21T17:16:50.000+02:00",
    "duration_min": 151,
    "place_id": "ChIJ16xOF4zjOEYRlCfgAC0aB1s"
   }
  },
  {
   "type": "Feature",
   "geometry": {
    "type": "Point",
    "coordinates": [
     8.492884,
     59.328305
    ]
   },
   "properties": {
    "kind": "stop",
    "label": "Bensinstasjon, Vrådal",
    "municipality": "Kviteseid",
    "name_verified": false,
    "date": "2026-07-21",
    "start": "2026-07-21T18:59:59.000+02:00",
    "end": "2026-07-21T19:07:53.000+02:00",
    "duration_min": 8,
    "place_id": "ChIJYWIzKvemOEYRudv0CLZVHp4"
   }
  },
  {
   "type": "Feature",
   "geometry": {
    "type": "Point",
    "coordinates": [
     8.489248,
     59.402009
    ]
   },
   "properties": {
    "kind": "stop",
    "label": "Kviteseid sentrum",
    "municipality": "Kviteseid",
    "name_verified": false,
    "date": "2026-07-21",
    "start": "2026-07-21T19:29:23.000+02:00",
    "end": "2026-07-21T19:58:22.000+02:00",
    "duration_min": 29,
    "place_id": "ChIJqROjXrioOEYRRQoZ_C7XqAw"
   }
  },
  {
   "type": "Feature",
   "geometry": {
    "type": "Point",
    "coordinates": [
     8.740398,
     59.431295
    ]
   },
   "properties": {
    "kind": "stop",
    "label": "Garvikstrondi Camping",
    "municipality": "Seljord",
    "name_verified": true,
    "date": "2026-07-21",
    "start": "2026-07-21T20:24:38.000+02:00",
    "end": "2026-07-22T11:36:01.000+02:00",
    "duration_min": 911,
    "place_id": "ChIJhXW2Xr9WR0YRCdPrMe2x6R0"
   }
  },
  {
   "type": "Feature",
   "geometry": {
    "type": "Point",
    "coordinates": [
     9.0737,
     59.446878
    ]
   },
   "properties": {
    "kind": "stop",
    "label": "Bø Sommarland",
    "municipality": "Midt-Telemark",
    "name_verified": true,
    "date": "2026-07-22",
    "start": "2026-07-22T12:05:09.000+02:00",
    "end": "2026-07-22T18:44:48.000+02:00",
    "duration_min": 400,
    "place_id": "ChIJf6ah9vBLR0YR8tWfWb6XA8A"
   }
  },
  {
   "type": "Feature",
   "geometry": {
    "type": "Point",
    "coordinates": [
     9.070647,
     59.410885
    ]
   },
   "properties": {
    "kind": "stop",
    "label": "MENY Bø",
    "municipality": "Midt-Telemark",
    "name_verified": true,
    "date": "2026-07-22",
    "start": "2026-07-22T18:50:38.000+02:00",
    "end": "2026-07-22T19:14:54.000+02:00",
    "duration_min": 24,
    "place_id": "ChIJMa54ZkdJR0YRKELy8mWi-Kw"
   }
  },
  {
   "type": "Feature",
   "geometry": {
    "type": "Point",
    "coordinates": [
     9.109827,
     59.410715
    ]
   },
   "properties": {
    "kind": "stop",
    "label": "Åsgrav Family Camping, Bø",
    "municipality": "Midt-Telemark",
    "name_verified": true,
    "date": "2026-07-22",
    "start": "2026-07-22T19:18:44.000+02:00",
    "end": "2026-07-23T10:57:45.000+02:00",
    "duration_min": 939,
    "place_id": "ChIJb0TYjXRJR0YRDbqv5EYFX5o"
   }
  },
  {
   "type": "Feature",
   "geometry": {
    "type": "Point",
    "coordinates": [
     9.26323,
     59.387537
    ]
   },
   "properties": {
    "kind": "stop",
    "label": "First Camp Norsjø / Norsjø Kabelpark, Akkerhaugen",
    "municipality": "Midt-Telemark",
    "name_verified": true,
    "date": "2026-07-23",
    "start": "2026-07-23T11:16:00.000+02:00",
    "end": "2026-07-23T14:59:09.000+02:00",
    "duration_min": 223,
    "place_id": "ChIJqUadMfc2R0YRTe7TTvIU2xg"
   }
  },
  {
   "type": "Feature",
   "geometry": {
    "type": "Point",
    "coordinates": [
     9.070647,
     59.410885
    ]
   },
   "properties": {
    "kind": "stop",
    "label": "MENY Bø",
    "municipality": "Midt-Telemark",
    "name_verified": true,
    "date": "2026-07-23",
    "start": "2026-07-23T15:16:03.000+02:00",
    "end": "2026-07-23T15:45:08.000+02:00",
    "duration_min": 29,
    "place_id": "ChIJMa54ZkdJR0YRKELy8mWi-Kw"
   }
  },
  {
   "type": "Feature",
   "geometry": {
    "type": "Point",
    "coordinates": [
     9.26323,
     59.387537
    ]
   },
   "properties": {
    "kind": "stop",
    "label": "First Camp Norsjø / Norsjø Kabelpark, Akkerhaugen",
    "municipality": "Midt-Telemark",
    "name_verified": true,
    "date": "2026-07-23",
    "start": "2026-07-23T16:02:47.000+02:00",
    "end": "2026-07-24T12:24:07.000+02:00",
    "duration_min": 1221,
    "place_id": "ChIJqUadMfc2R0YRTe7TTvIU2xg"
   }
  },
  {
   "type": "Feature",
   "geometry": {
    "type": "Point",
    "coordinates": [
     9.266414,
     59.284999
    ]
   },
   "properties": {
    "kind": "stop",
    "label": "Ulefoss",
    "municipality": "Nome",
    "name_verified": false,
    "date": "2026-07-24",
    "start": "2026-07-24T12:49:19.000+02:00",
    "end": "2026-07-24T13:14:37.000+02:00",
    "duration_min": 25,
    "place_id": "ChIJcVrnP5A5R0YRjcDQt4qokyU"
   }
  },
  {
   "type": "Feature",
   "geometry": {
    "type": "Point",
    "coordinates": [
     10.207434,
     59.173293
    ]
   },
   "properties": {
    "kind": "stop",
    "label": "Fokserød, E18",
    "municipality": "Sandefjord",
    "name_verified": false,
    "date": "2026-07-24",
    "start": "2026-07-24T14:28:47.000+02:00",
    "end": "2026-07-24T14:39:26.000+02:00",
    "duration_min": 11,
    "place_id": "ChIJ4R2jJDDHRkYRoio2CwDelGc"
   }
  },
  {
   "type": "Feature",
   "geometry": {
    "type": "Point",
    "coordinates": [
     10.242935,
     59.207624
    ]
   },
   "properties": {
    "kind": "stop",
    "label": "E18 nord for Fokserød",
    "municipality": "Sandefjord",
    "name_verified": false,
    "date": "2026-07-24",
    "start": "2026-07-24T14:44:06.000+02:00",
    "end": "2026-07-24T15:00:26.000+02:00",
    "duration_min": 16,
    "place_id": "ChIJrbTL05_HRkYR5b2mSLfjYRY"
   }
  }
 ]
}